{"type": "FeatureCollection", "features": [{"type": "Feature", "geometry": {"type": "Point", "coordinates": [11.625, 46.275]}, "properties": {"cell_key": "308_77", "elevation_m": 1791.0, "veg_class": "conifer", "habitat_score": 0.316, "veg_sample_count": 12}}, {"type": "Feature", "geometry": {"type": "Point", "coordinates": [11.174999999999999, 46.425]}, "properties": {"cell_key": "309_74", "elevation_m": 1415.0, "veg_class": "conifer", "habitat_score": 0.974, "veg_sample_count": 7}}, {"type": "Feature", "geometry": {"type": "Point", "coordinates": [11.625, 45.824999999999996]}, "properties": {"cell_key": "305_77", "elevation_m": 1095.0, "veg_class": "broadleaf", "habitat_score": 1.0, "veg_sample_count": 4}}, {"type": "Feature", "geometry": {"type": "Point", "coordinates": [11.025, 46.425]}, "properties": {"cell_key": "309_73", "elevation_m": 803.0, "veg_class": "conifer", "habitat_score": 1.0, "veg_sample_count": 12}}, {"type": "Feature", "geometry": {"type": "Point", "coordinates": [11.775, 46.425]}, "properties": {"cell_key": "309_78", "elevation_m": 2216.0, "veg_class": "conifer", "habitat_score": 0.15, "veg_sample_count": 4}}, {"type": "Feature", "geometry": {"type": "Point", "coordinates": [10.725, 46.425]}, "properties": {"cell_key": "309_71", "elevation_m": 3069.0, "veg_class": "conifer", "habitat_score": 0.15, "veg_sample_count": 4}}, {"type": "Feature", "geometry": {"type": "Point", "coordinates": [10.875, 46.574999999999996]}, "properties": {"cell_key": "310_72", "elevation_m": 1800.0, "veg_class": "conifer", "habitat_score": 0.3, "veg_sample_count": 2}}, {"type": "Feature", "geometry": {"type": "Point", "coordinates": [9.674999999999999, 45.975]}, "properties": {"cell_key": "306_64", "elevation_m": 876.0, "veg_class": "broadleaf", "habitat_score": 1.0, "veg_sample_count": 6}}, {"type": "Feature", "geometry": {"type": "Point", "coordinates": [10.125, 45.975]}, "properties": {"cell_key": "306_67", "elevation_m": 1156.0, "veg_class": "conifer", "habitat_score": 1.0, "veg_sample_count": 5}}, {"type": "Feature", "geometry": {"type": "Point", "coordinates": [12.375, 46.725]}, "properties": {"cell_key": "311_82", "elevation_m": 1852.0, "veg_class": "conifer", "habitat_score": 0.15, "veg_sample_count": 6}}, {"type": "Feature", "geometry": {"type": "Point", "coordinates": [10.424999999999999, 46.275]}, "properties": {"cell_key": "308_69", "elevation_m": 2528.0, "veg_class": "conifer", "habitat_score": 0.15, "veg_sample_count": 7}}, {"type": "Feature", "geometry": {"type": "Point", "coordinates": [10.125, 45.525]}, "properties": {"cell_key": "303_67", "elevation_m": 116.0, "veg_class": "none", "habitat_score": 0.1, "veg_sample_count": 1}}, {"type": "Feature", "geometry": {"type": "Point", "coordinates": [11.475, 45.824999999999996]}, "properties": {"cell_key": "305_76", "elevation_m": 1194.0, "veg_class": "conifer", "habitat_score": 1.0, "veg_sample_count": 3}}, {"type": "Feature", "geometry": {"type": "Point", "coordinates": [8.325, 46.275]}, "properties": {"cell_key": "308_55", "elevation_m": 1634.0, "veg_class": "shrub", "habitat_score": 0.295, "veg_sample_count": 3}}, {"type": "Feature", "geometry": {"type": "Point", "coordinates": [7.725, 44.175]}, "properties": {"cell_key": "294_51", "elevation_m": 2397.0, "veg_class": "conifer", "habitat_score": 0.15, "veg_sample_count": 3}}, {"type": "Feature", "geometry": {"type": "Point", "coordinates": [10.725, 46.275]}, "properties": {"cell_key": "308_71", "elevation_m": 2137.0, "veg_class": "conifer", "habitat_score": 0.15, "veg_sample_count": 6}}, {"type": "Feature", "geometry": {"type": "Point", "coordinates": [11.325, 46.125]}, "properties": {"cell_key": "307_75", "elevation_m": 1414.0, "veg_class": "conifer", "habitat_score": 0.976, "veg_sample_count": 16}}, {"type": "Feature", "geometry": {"type": "Point", "coordinates": [11.475, 45.975]}, "properties": {"cell_key": "306_76", "elevation_m": 2045.0, "veg_class": "conifer", "habitat_score": 0.15, "veg_sample_count": 6}}, {"type": "Feature", "geometry": {"type": "Point", "coordinates": [8.475, 46.125]}, "properties": {"cell_key": "307_56", "elevation_m": 1113.0, "veg_class": "mixed", "habitat_score": 1.0, "veg_sample_count": 4}}, {"type": "Feature", "geometry": {"type": "Point", "coordinates": [11.625, 45.975]}, "properties": {"cell_key": "306_77", "elevation_m": 1340.0, "veg_class": "conifer", "habitat_score": 1.0, "veg_sample_count": 1}}, {"type": "Feature", "geometry": {"type": "Point", "coordinates": [10.424999999999999, 46.875]}, "properties": {"cell_key": "312_69", "elevation_m": 1552.0, "veg_class": "conifer", "habitat_score": 0.734, "veg_sample_count": 2}}, {"type": "Feature", "geometry": {"type": "Point", "coordinates": [11.025, 46.125]}, "properties": {"cell_key": "307_73", "elevation_m": 1434.0, "veg_class": "conifer", "habitat_score": 0.941, "veg_sample_count": 5}}, {"type": "Feature", "geometry": {"type": "Point", "coordinates": [11.325, 45.824999999999996]}, "properties": {"cell_key": "305_75", "elevation_m": 591.0, "veg_class": "conifer", "habitat_score": 1.0, "veg_sample_count": 2}}, {"type": "Feature", "geometry": {"type": "Point", "coordinates": [11.174999999999999, 45.675]}, "properties": {"cell_key": "304_74", "elevation_m": 1646.0, "veg_class": "broadleaf", "habitat_score": 0.57, "veg_sample_count": 4}}, {"type": "Feature", "geometry": {"type": "Point", "coordinates": [11.775, 46.275]}, "properties": {"cell_key": "308_78", "elevation_m": 1990.0, "veg_class": "conifer", "habitat_score": 0.15, "veg_sample_count": 9}}, {"type": "Feature", "geometry": {"type": "Point", "coordinates": [10.575, 44.175]}, "properties": {"cell_key": "294_70", "elevation_m": 1381.0, "veg_class": "broadleaf", "habitat_score": 1.0, "veg_sample_count": 7}}, {"type": "Feature", "geometry": {"type": "Point", "coordinates": [11.325, 46.574999999999996]}, "properties": {"cell_key": "310_75", "elevation_m": 1191.0, "veg_class": "conifer", "habitat_score": 1.0, "veg_sample_count": 7}}, {"type": "Feature", "geometry": {"type": "Point", "coordinates": [11.025, 45.975]}, "properties": {"cell_key": "306_73", "elevation_m": 1809.0, "veg_class": "conifer", "habitat_score": 0.15, "veg_sample_count": 2}}, {"type": "Feature", "geometry": {"type": "Point", "coordinates": [8.325, 46.125]}, "properties": {"cell_key": "307_55", "elevation_m": 388.0, "veg_class": "broadleaf", "habitat_score": 1.0, "veg_sample_count": 3}}, {"type": "Feature", "geometry": {"type": "Point", "coordinates": [9.525, 46.125]}, "properties": {"cell_key": "307_63", "elevation_m": 526.0, "veg_class": "conifer", "habitat_score": 1.0, "veg_sample_count": 15}}, {"type": "Feature", "geometry": {"type": "Point", "coordinates": [7.725, 45.824999999999996]}, "properties": {"cell_key": "305_51", "elevation_m": 1712.0, "veg_class": "conifer", "habitat_score": 0.454, "veg_sample_count": 8}}, {"type": "Feature", "geometry": {"type": "Point", "coordinates": [10.875, 46.425]}, "properties": {"cell_key": "309_72", "elevation_m": 2138.0, "veg_class": "conifer", "habitat_score": 0.15, "veg_sample_count": 5}}, {"type": "Feature", "geometry": {"type": "Point", "coordinates": [11.325, 46.275]}, "properties": {"cell_key": "308_75", "elevation_m": 1493.0, "veg_class": "mixed", "habitat_score": 0.837, "veg_sample_count": 7}}, {"type": "Feature", "geometry": {"type": "Point", "coordinates": [9.674999999999999, 44.324999999999996]}, "properties": {"cell_key": "295_64", "elevation_m": 702.0, "veg_class": "broadleaf", "habitat_score": 1.0, "veg_sample_count": 7}}, {"type": "Feature", "geometry": {"type": "Point", "coordinates": [8.475, 45.675]}, "properties": {"cell_key": "304_56", "elevation_m": 285.0, "veg_class": "broadleaf", "habitat_score": 1.0, "veg_sample_count": 3}}, {"type": "Feature", "geometry": {"type": "Point", "coordinates": [11.174999999999999, 46.725]}, "properties": {"cell_key": "311_74", "elevation_m": 1364.0, "veg_class": "conifer", "habitat_score": 1.0, "veg_sample_count": 7}}, {"type": "Feature", "geometry": {"type": "Point", "coordinates": [10.424999999999999, 44.175]}, "properties": {"cell_key": "294_69", "elevation_m": 822.0, "veg_class": "broadleaf", "habitat_score": 1.0, "veg_sample_count": 3}}, {"type": "Feature", "geometry": {"type": "Point", "coordinates": [11.475, 46.275]}, "properties": {"cell_key": "308_76", "elevation_m": 992.0, "veg_class": "conifer", "habitat_score": 1.0, "veg_sample_count": 10}}, {"type": "Feature", "geometry": {"type": "Point", "coordinates": [11.775, 46.125]}, "properties": {"cell_key": "307_78", "elevation_m": 868.0, "veg_class": "conifer", "habitat_score": 1.0, "veg_sample_count": 9}}, {"type": "Feature", "geometry": {"type": "Point", "coordinates": [8.025, 44.175]}, "properties": {"cell_key": "294_53", "elevation_m": 992.0, "veg_class": "broadleaf", "habitat_score": 1.0, "veg_sample_count": 3}}, {"type": "Feature", "geometry": {"type": "Point", "coordinates": [11.475, 46.125]}, "properties": {"cell_key": "307_76", "elevation_m": 1179.0, "veg_class": "conifer", "habitat_score": 1.0, "veg_sample_count": 8}}, {"type": "Feature", "geometry": {"type": "Point", "coordinates": [8.025, 45.675]}, "properties": {"cell_key": "304_53", "elevation_m": 1695.0, "veg_class": "mixed", "habitat_score": 0.484, "veg_sample_count": 7}}, {"type": "Feature", "geometry": {"type": "Point", "coordinates": [11.325, 45.975]}, "properties": {"cell_key": "306_75", "elevation_m": 1117.0, "veg_class": "conifer", "habitat_score": 1.0, "veg_sample_count": 9}}, {"type": "Feature", "geometry": {"type": "Point", "coordinates": [7.2749999999999995, 44.925]}, "properties": {"cell_key": "299_48", "elevation_m": 986.0, "veg_class": "broadleaf", "habitat_score": 1.0, "veg_sample_count": 13}}, {"type": "Feature", "geometry": {"type": "Point", "coordinates": [10.875, 44.025]}, "properties": {"cell_key": "293_72", "elevation_m": 751.0, "veg_class": "broadleaf", "habitat_score": 1.0, "veg_sample_count": 6}}, {"type": "Feature", "geometry": {"type": "Point", "coordinates": [11.475, 46.574999999999996]}, "properties": {"cell_key": "310_76", "elevation_m": 1536.0, "veg_class": "conifer", "habitat_score": 0.762, "veg_sample_count": 16}}, {"type": "Feature", "geometry": {"type": "Point", "coordinates": [9.075, 40.875]}, "properties": {"cell_key": "272_60", "elevation_m": 576.0, "veg_class": "broadleaf", "habitat_score": 1.0, "veg_sample_count": 4}}, {"type": "Feature", "geometry": {"type": "Point", "coordinates": [9.225, 45.975]}, "properties": {"cell_key": "306_61", "elevation_m": 197.0, "veg_class": "broadleaf", "habitat_score": 1.0, "veg_sample_count": 5}}, {"type": "Feature", "geometry": {"type": "Point", "coordinates": [8.775, 45.824999999999996]}, "properties": {"cell_key": "305_58", "elevation_m": 353.0, "veg_class": "broadleaf", "habitat_score": 1.0, "veg_sample_count": 12}}, {"type": "Feature", "geometry": {"type": "Point", "coordinates": [11.475, 46.425]}, "properties": {"cell_key": "309_76", "elevation_m": 1058.0, "veg_class": "conifer", "habitat_score": 1.0, "veg_sample_count": 5}}, {"type": "Feature", "geometry": {"type": "Point", "coordinates": [11.775, 43.875]}, "properties": {"cell_key": "292_78", "elevation_m": 787.0, "veg_class": "mixed", "habitat_score": 1.0, "veg_sample_count": 5}}, {"type": "Feature", "geometry": {"type": "Point", "coordinates": [11.775, 43.574999999999996]}, "properties": {"cell_key": "290_78", "elevation_m": 474.0, "veg_class": "broadleaf", "habitat_score": 1.0, "veg_sample_count": 2}}, {"type": "Feature", "geometry": {"type": "Point", "coordinates": [15.825, 38.175]}, "properties": {"cell_key": "254_105", "elevation_m": 984.0, "veg_class": "broadleaf", "habitat_score": 1.0, "veg_sample_count": 6}}, {"type": "Feature", "geometry": {"type": "Point", "coordinates": [11.025, 43.125]}, "properties": {"cell_key": "287_73", "elevation_m": 630.0, "veg_class": "broadleaf", "habitat_score": 1.0, "veg_sample_count": 5}}, {"type": "Feature", "geometry": {"type": "Point", "coordinates": [11.025, 44.324999999999996]}, "properties": {"cell_key": "295_73", "elevation_m": 722.0, "veg_class": "broadleaf", "habitat_score": 1.0, "veg_sample_count": 2}}, {"type": "Feature", "geometry": {"type": "Point", "coordinates": [11.475, 46.725]}, "properties": {"cell_key": "311_76", "elevation_m": 2102.0, "veg_class": "conifer", "habitat_score": 0.15, "veg_sample_count": 3}}, {"type": "Feature", "geometry": {"type": "Point", "coordinates": [12.225, 46.875]}, "properties": {"cell_key": "312_81", "elevation_m": 2475.0, "veg_class": "conifer", "habitat_score": 0.15, "veg_sample_count": 3}}, {"type": "Feature", "geometry": {"type": "Point", "coordinates": [12.375, 46.125]}, "properties": {"cell_key": "307_82", "elevation_m": 662.0, "veg_class": "mixed", "habitat_score": 1.0, "veg_sample_count": 3}}, {"type": "Feature", "geometry": {"type": "Point", "coordinates": [11.174999999999999, 45.975]}, "properties": {"cell_key": "306_74", "elevation_m": 1767.0, "veg_class": "mixed", "habitat_score": 0.358, "veg_sample_count": 10}}, {"type": "Feature", "geometry": {"type": "Point", "coordinates": [11.325, 47.025]}, "properties": {"cell_key": "313_75", "elevation_m": 1311.0, "veg_class": "conifer", "habitat_score": 1.0, "veg_sample_count": 5}}, {"type": "Feature", "geometry": {"type": "Point", "coordinates": [11.625, 46.574999999999996]}, "properties": {"cell_key": "310_77", "elevation_m": 1377.0, "veg_class": "conifer", "habitat_score": 1.0, "veg_sample_count": 9}}, {"type": "Feature", "geometry": {"type": "Point", "coordinates": [11.174999999999999, 46.574999999999996]}, "properties": {"cell_key": "310_74", "elevation_m": 286.0, "veg_class": "conifer", "habitat_score": 1.0, "veg_sample_count": 8}}, {"type": "Feature", "geometry": {"type": "Point", "coordinates": [11.625, 46.125]}, "properties": {"cell_key": "307_77", "elevation_m": 1335.0, "veg_class": "conifer", "habitat_score": 1.0, "veg_sample_count": 2}}, {"type": "Feature", "geometry": {"type": "Point", "coordinates": [12.075, 45.975]}, "properties": {"cell_key": "306_80", "elevation_m": 1292.0, "veg_class": "broadleaf", "habitat_score": 1.0, "veg_sample_count": 3}}, {"type": "Feature", "geometry": {"type": "Point", "coordinates": [10.275, 46.425]}, "properties": {"cell_key": "309_68", "elevation_m": 2732.0, "veg_class": "conifer", "habitat_score": 0.15, "veg_sample_count": 2}}, {"type": "Feature", "geometry": {"type": "Point", "coordinates": [11.174999999999999, 46.275]}, "properties": {"cell_key": "308_74", "elevation_m": 1174.0, "veg_class": "conifer", "habitat_score": 1.0, "veg_sample_count": 1}}, {"type": "Feature", "geometry": {"type": "Point", "coordinates": [11.625, 47.025]}, "properties": {"cell_key": "313_77", "elevation_m": 2988.0, "veg_class": "conifer", "habitat_score": 0.15, "veg_sample_count": 1}}, {"type": "Feature", "geometry": {"type": "Point", "coordinates": [9.825, 45.975]}, "properties": {"cell_key": "306_65", "elevation_m": 2096.0, "veg_class": "conifer", "habitat_score": 0.15, "veg_sample_count": 2}}, {"type": "Feature", "geometry": {"type": "Point", "coordinates": [11.174999999999999, 46.875]}, "properties": {"cell_key": "312_74", "elevation_m": 2166.0, "veg_class": "conifer", "habitat_score": 0.15, "veg_sample_count": 2}}, {"type": "Feature", "geometry": {"type": "Point", "coordinates": [7.2749999999999995, 45.074999999999996]}, "properties": {"cell_key": "300_48", "elevation_m": 1436.0, "veg_class": "broadleaf", "habitat_score": 0.937, "veg_sample_count": 10}}, {"type": "Feature", "geometry": {"type": "Point", "coordinates": [11.025, 46.574999999999996]}, "properties": {"cell_key": "310_73", "elevation_m": 1740.0, "veg_class": "conifer", "habitat_score": 0.405, "veg_sample_count": 3}}, {"type": "Feature", "geometry": {"type": "Point", "coordinates": [8.025, 45.975]}, "properties": {"cell_key": "306_53", "elevation_m": 1740.0, "veg_class": "mixed", "habitat_score": 0.405, "veg_sample_count": 2}}, {"type": "Feature", "geometry": {"type": "Point", "coordinates": [11.025, 45.675]}, "properties": {"cell_key": "304_73", "elevation_m": 1342.0, "veg_class": "conifer", "habitat_score": 1.0, "veg_sample_count": 1}}, {"type": "Feature", "geometry": {"type": "Point", "coordinates": [11.325, 46.425]}, "properties": {"cell_key": "309_75", "elevation_m": 229.0, "veg_class": "mixed", "habitat_score": 1.0, "veg_sample_count": 10}}, {"type": "Feature", "geometry": {"type": "Point", "coordinates": [9.674999999999999, 45.824999999999996]}, "properties": {"cell_key": "305_64", "elevation_m": 358.0, "veg_class": "mixed", "habitat_score": 1.0, "veg_sample_count": 3}}, {"type": "Feature", "geometry": {"type": "Point", "coordinates": [12.075, 46.725]}, "properties": {"cell_key": "311_80", "elevation_m": 1846.0, "veg_class": "conifer", "habitat_score": 0.15, "veg_sample_count": 7}}, {"type": "Feature", "geometry": {"type": "Point", "coordinates": [9.674999999999999, 46.275]}, "properties": {"cell_key": "308_64", "elevation_m": 2184.0, "veg_class": "conifer", "habitat_score": 0.15, "veg_sample_count": 3}}, {"type": "Feature", "geometry": {"type": "Point", "coordinates": [10.125, 45.074999999999996]}, "properties": {"cell_key": "300_67", "elevation_m": 32.0, "veg_class": "none", "habitat_score": 0.078, "veg_sample_count": 1}}, {"type": "Feature", "geometry": {"type": "Point", "coordinates": [10.725, 44.175]}, "properties": {"cell_key": "294_71", "elevation_m": 1229.0, "veg_class": "broadleaf", "habitat_score": 1.0, "veg_sample_count": 9}}, {"type": "Feature", "geometry": {"type": "Point", "coordinates": [11.625, 46.425]}, "properties": {"cell_key": "309_77", "elevation_m": 2322.0, "veg_class": "conifer", "habitat_score": 0.15, "veg_sample_count": 4}}, {"type": "Feature", "geometry": {"type": "Point", "coordinates": [7.875, 45.675]}, "properties": {"cell_key": "304_52", "elevation_m": 1463.0, "veg_class": "broadleaf", "habitat_score": 0.89, "veg_sample_count": 2}}, {"type": "Feature", "geometry": {"type": "Point", "coordinates": [10.424999999999999, 44.025]}, "properties": {"cell_key": "293_69", "elevation_m": 942.0, "veg_class": "broadleaf", "habitat_score": 1.0, "veg_sample_count": 3}}, {"type": "Feature", "geometry": {"type": "Point", "coordinates": [6.675, 45.074999999999996]}, "properties": {"cell_key": "300_44", "elevation_m": 2032.0, "veg_class": "conifer", "habitat_score": 0.15, "veg_sample_count": 1}}, {"type": "Feature", "geometry": {"type": "Point", "coordinates": [16.125, 40.574999999999996]}, "properties": {"cell_key": "270_107", "elevation_m": 390.0, "veg_class": "none", "habitat_score": 0.1, "veg_sample_count": 1}}, {"type": "Feature", "geometry": {"type": "Point", "coordinates": [7.574999999999999, 44.324999999999996]}, "properties": {"cell_key": "295_50", "elevation_m": 606.0, "veg_class": "mixed", "habitat_score": 1.0, "veg_sample_count": 4}}, {"type": "Feature", "geometry": {"type": "Point", "coordinates": [12.075, 46.275]}, "properties": {"cell_key": "308_80", "elevation_m": 1242.0, "veg_class": "conifer", "habitat_score": 1.0, "veg_sample_count": 1}}, {"type": "Feature", "geometry": {"type": "Point", "coordinates": [15.075, 41.175]}, "properties": {"cell_key": "274_100", "elevation_m": 506.0, "veg_class": "broadleaf", "habitat_score": 1.0, "veg_sample_count": 1}}, {"type": "Feature", "geometry": {"type": "Point", "coordinates": [12.225, 46.725]}, "properties": {"cell_key": "311_81", "elevation_m": 1212.0, "veg_class": "conifer", "habitat_score": 1.0, "veg_sample_count": 7}}, {"type": "Feature", "geometry": {"type": "Point", "coordinates": [8.775, 46.125]}, "properties": {"cell_key": "307_58", "elevation_m": 193.0, "veg_class": "broadleaf", "habitat_score": 1.0, "veg_sample_count": 1}}, {"type": "Feature", "geometry": {"type": "Point", "coordinates": [11.025, 46.275]}, "properties": {"cell_key": "308_73", "elevation_m": 684.0, "veg_class": "none", "habitat_score": 0.1, "veg_sample_count": 2}}, {"type": "Feature", "geometry": {"type": "Point", "coordinates": [13.424999999999999, 42.525]}, "properties": {"cell_key": "283_89", "elevation_m": 1300.0, "veg_class": "broadleaf", "habitat_score": 1.0, "veg_sample_count": 1}}, {"type": "Feature", "geometry": {"type": "Point", "coordinates": [8.475, 45.375]}, "properties": {"cell_key": "302_56", "elevation_m": 130.0, "veg_class": "none", "habitat_score": 0.1, "veg_sample_count": 1}}, {"type": "Feature", "geometry": {"type": "Point", "coordinates": [14.325, 41.475]}, "properties": {"cell_key": "276_95", "elevation_m": 1328.0, "veg_class": "none", "habitat_score": 0.1, "veg_sample_count": 1}}, {"type": "Feature", "geometry": {"type": "Point", "coordinates": [10.424999999999999, 46.125]}, "properties": {"cell_key": "307_69", "elevation_m": 1765.0, "veg_class": "conifer", "habitat_score": 0.361, "veg_sample_count": 4}}, {"type": "Feature", "geometry": {"type": "Point", "coordinates": [12.525, 41.925]}, "properties": {"cell_key": "279_83", "elevation_m": 35.0, "veg_class": "none", "habitat_score": 0.082, "veg_sample_count": 3}}, {"type": "Feature", "geometry": {"type": "Point", "coordinates": [7.425, 44.925]}, "properties": {"cell_key": "299_49", "elevation_m": 282.0, "veg_class": "none", "habitat_score": 0.1, "veg_sample_count": 1}}, {"type": "Feature", "geometry": {"type": "Point", "coordinates": [11.775, 46.875]}, "properties": {"cell_key": "312_78", "elevation_m": 2479.0, "veg_class": "conifer", "habitat_score": 0.15, "veg_sample_count": 3}}, {"type": "Feature", "geometry": {"type": "Point", "coordinates": [12.075, 46.875]}, "properties": {"cell_key": "312_80", "elevation_m": 2545.0, "veg_class": "conifer", "habitat_score": 0.15, "veg_sample_count": 2}}, {"type": "Feature", "geometry": {"type": "Point", "coordinates": [9.975, 46.125]}, "properties": {"cell_key": "307_66", "elevation_m": 1780.0, "veg_class": "conifer", "habitat_score": 0.335, "veg_sample_count": 8}}, {"type": "Feature", "geometry": {"type": "Point", "coordinates": [10.424999999999999, 46.425]}, "properties": {"cell_key": "309_69", "elevation_m": 2578.0, "veg_class": "conifer", "habitat_score": 0.15, "veg_sample_count": 5}}, {"type": "Feature", "geometry": {"type": "Point", "coordinates": [10.125, 46.125]}, "properties": {"cell_key": "307_67", "elevation_m": 1100.0, "veg_class": "conifer", "habitat_score": 1.0, "veg_sample_count": 13}}, {"type": "Feature", "geometry": {"type": "Point", "coordinates": [10.575, 46.275]}, "properties": {"cell_key": "308_70", "elevation_m": 2493.0, "veg_class": "conifer", "habitat_score": 0.15, "veg_sample_count": 4}}, {"type": "Feature", "geometry": {"type": "Point", "coordinates": [13.725, 46.425]}, "properties": {"cell_key": "309_91", "elevation_m": 1971.0, "veg_class": "mixed", "habitat_score": 0.15, "veg_sample_count": 2}}, {"type": "Feature", "geometry": {"type": "Point", "coordinates": [11.325, 46.875]}, "properties": {"cell_key": "312_75", "elevation_m": 1884.0, "veg_class": "conifer", "habitat_score": 0.15, "veg_sample_count": 6}}, {"type": "Feature", "geometry": {"type": "Point", "coordinates": [8.025, 44.625]}, "properties": {"cell_key": "297_53", "elevation_m": 382.0, "veg_class": "none", "habitat_score": 0.1, "veg_sample_count": 1}}, {"type": "Feature", "geometry": {"type": "Point", "coordinates": [8.174999999999999, 45.675]}, "properties": {"cell_key": "304_54", "elevation_m": 663.0, "veg_class": "mixed", "habitat_score": 1.0, "veg_sample_count": 3}}, {"type": "Feature", "geometry": {"type": "Point", "coordinates": [15.075, 37.725]}, "properties": {"cell_key": "251_100", "elevation_m": 1224.0, "veg_class": "shrub", "habitat_score": 0.5, "veg_sample_count": 2}}, {"type": "Feature", "geometry": {"type": "Point", "coordinates": [7.725, 44.324999999999996]}, "properties": {"cell_key": "295_51", "elevation_m": 733.0, "veg_class": "broadleaf", "habitat_score": 1.0, "veg_sample_count": 3}}, {"type": "Feature", "geometry": {"type": "Point", "coordinates": [9.525, 45.975]}, "properties": {"cell_key": "306_63", "elevation_m": 1242.0, "veg_class": "conifer", "habitat_score": 1.0, "veg_sample_count": 4}}, {"type": "Feature", "geometry": {"type": "Point", "coordinates": [8.625, 45.675]}, "properties": {"cell_key": "304_57", "elevation_m": 280.0, "veg_class": "broadleaf", "habitat_score": 1.0, "veg_sample_count": 3}}, {"type": "Feature", "geometry": {"type": "Point", "coordinates": [15.075, 40.725]}, "properties": {"cell_key": "271_100", "elevation_m": 839.0, "veg_class": "broadleaf", "habitat_score": 1.0, "veg_sample_count": 2}}, {"type": "Feature", "geometry": {"type": "Point", "coordinates": [12.525, 46.574999999999996]}, "properties": {"cell_key": "310_83", "elevation_m": 1116.0, "veg_class": "conifer", "habitat_score": 1.0, "veg_sample_count": 4}}, {"type": "Feature", "geometry": {"type": "Point", "coordinates": [11.775, 46.574999999999996]}, "properties": {"cell_key": "310_78", "elevation_m": 2307.0, "veg_class": "conifer", "habitat_score": 0.15, "veg_sample_count": 2}}, {"type": "Feature", "geometry": {"type": "Point", "coordinates": [11.924999999999999, 46.875]}, "properties": {"cell_key": "312_79", "elevation_m": 1657.0, "veg_class": "shrub", "habitat_score": 0.275, "veg_sample_count": 3}}, {"type": "Feature", "geometry": {"type": "Point", "coordinates": [11.775, 46.725]}, "properties": {"cell_key": "311_78", "elevation_m": 1436.0, "veg_class": "conifer", "habitat_score": 0.937, "veg_sample_count": 4}}, {"type": "Feature", "geometry": {"type": "Point", "coordinates": [10.875, 46.275]}, "properties": {"cell_key": "308_72", "elevation_m": 1627.0, "veg_class": "conifer", "habitat_score": 0.603, "veg_sample_count": 6}}, {"type": "Feature", "geometry": {"type": "Point", "coordinates": [9.975, 46.275]}, "properties": {"cell_key": "308_66", "elevation_m": 3103.0, "veg_class": "conifer", "habitat_score": 0.15, "veg_sample_count": 3}}, {"type": "Feature", "geometry": {"type": "Point", "coordinates": [7.425, 44.475]}, "properties": {"cell_key": "296_49", "elevation_m": 545.0, "veg_class": "none", "habitat_score": 0.1, "veg_sample_count": 1}}, {"type": "Feature", "geometry": {"type": "Point", "coordinates": [12.975, 46.574999999999996]}, "properties": {"cell_key": "310_86", "elevation_m": 1523.0, "veg_class": "mixed", "habitat_score": 0.785, "veg_sample_count": 2}}, {"type": "Feature", "geometry": {"type": "Point", "coordinates": [10.575, 45.975]}, "properties": {"cell_key": "306_70", "elevation_m": 1442.0, "veg_class": "broadleaf", "habitat_score": 0.926, "veg_sample_count": 1}}, {"type": "Feature", "geometry": {"type": "Point", "coordinates": [9.825, 46.125]}, "properties": {"cell_key": "307_65", "elevation_m": 1184.0, "veg_class": "broadleaf", "habitat_score": 1.0, "veg_sample_count": 3}}, {"type": "Feature", "geometry": {"type": "Point", "coordinates": [9.975, 44.475]}, "properties": {"cell_key": "296_66", "elevation_m": 979.0, "veg_class": "broadleaf", "habitat_score": 1.0, "veg_sample_count": 4}}, {"type": "Feature", "geometry": {"type": "Point", "coordinates": [8.475, 46.275]}, "properties": {"cell_key": "308_56", "elevation_m": 1323.0, "veg_class": "conifer", "habitat_score": 1.0, "veg_sample_count": 1}}, {"type": "Feature", "geometry": {"type": "Point", "coordinates": [10.125, 44.025]}, "properties": {"cell_key": "293_67", "elevation_m": 22.0, "veg_class": "broadleaf", "habitat_score": 0.664, "veg_sample_count": 2}}, {"type": "Feature", "geometry": {"type": "Point", "coordinates": [8.475, 45.824999999999996]}, "properties": {"cell_key": "305_56", "elevation_m": 671.0, "veg_class": "mixed", "habitat_score": 1.0, "veg_sample_count": 5}}, {"type": "Feature", "geometry": {"type": "Point", "coordinates": [14.174999999999999, 41.925]}, "properties": {"cell_key": "279_94", "elevation_m": 1488.0, "veg_class": "broadleaf", "habitat_score": 0.846, "veg_sample_count": 1}}, {"type": "Feature", "geometry": {"type": "Point", "coordinates": [12.975, 41.625]}, "properties": {"cell_key": "277_86", "elevation_m": 949.0, "veg_class": "none", "habitat_score": 0.1, "veg_sample_count": 3}}, {"type": "Feature", "geometry": {"type": "Point", "coordinates": [12.825, 46.125]}, "properties": {"cell_key": "307_85", "elevation_m": 170.0, "veg_class": "none", "habitat_score": 0.1, "veg_sample_count": 1}}, {"type": "Feature", "geometry": {"type": "Point", "coordinates": [11.625, 46.725]}, "properties": {"cell_key": "311_77", "elevation_m": 1424.0, "veg_class": "conifer", "habitat_score": 0.958, "veg_sample_count": 5}}, {"type": "Feature", "geometry": {"type": "Point", "coordinates": [7.425, 45.225]}, "properties": {"cell_key": "301_49", "elevation_m": 808.0, "veg_class": "broadleaf", "habitat_score": 1.0, "veg_sample_count": 1}}, {"type": "Feature", "geometry": {"type": "Point", "coordinates": [15.975, 39.824999999999996]}, "properties": {"cell_key": "265_106", "elevation_m": 1154.0, "veg_class": "none", "habitat_score": 0.1, "veg_sample_count": 1}}, {"type": "Feature", "geometry": {"type": "Point", "coordinates": [8.775, 44.625]}, "properties": {"cell_key": "297_58", "elevation_m": 561.0, "veg_class": "broadleaf", "habitat_score": 1.0, "veg_sample_count": 6}}, {"type": "Feature", "geometry": {"type": "Point", "coordinates": [9.525, 44.324999999999996]}, "properties": {"cell_key": "295_63", "elevation_m": 747.0, "veg_class": "shrub", "habitat_score": 0.5, "veg_sample_count": 4}}, {"type": "Feature", "geometry": {"type": "Point", "coordinates": [11.174999999999999, 46.125]}, "properties": {"cell_key": "307_74", "elevation_m": 933.0, "veg_class": "mixed", "habitat_score": 1.0, "veg_sample_count": 9}}, {"type": "Feature", "geometry": {"type": "Point", "coordinates": [9.975, 45.975]}, "properties": {"cell_key": "306_66", "elevation_m": 1435.0, "veg_class": "conifer", "habitat_score": 0.939, "veg_sample_count": 7}}, {"type": "Feature", "geometry": {"type": "Point", "coordinates": [9.525, 46.275]}, "properties": {"cell_key": "308_63", "elevation_m": 1826.0, "veg_class": "broadleaf", "habitat_score": 0.15, "veg_sample_count": 2}}, {"type": "Feature", "geometry": {"type": "Point", "coordinates": [6.975, 44.324999999999996]}, "properties": {"cell_key": "295_46", "elevation_m": 2024.0, "veg_class": "conifer", "habitat_score": 0.15, "veg_sample_count": 1}}, {"type": "Feature", "geometry": {"type": "Point", "coordinates": [8.625, 40.125]}, "properties": {"cell_key": "267_57", "elevation_m": 701.0, "veg_class": "broadleaf", "habitat_score": 1.0, "veg_sample_count": 3}}, {"type": "Feature", "geometry": {"type": "Point", "coordinates": [7.2749999999999995, 45.675]}, "properties": {"cell_key": "304_48", "elevation_m": 2279.0, "veg_class": "conifer", "habitat_score": 0.15, "veg_sample_count": 1}}, {"type": "Feature", "geometry": {"type": "Point", "coordinates": [11.924999999999999, 46.425]}, "properties": {"cell_key": "309_79", "elevation_m": 1417.0, "veg_class": "conifer", "habitat_score": 0.97, "veg_sample_count": 3}}, {"type": "Feature", "geometry": {"type": "Point", "coordinates": [12.525, 46.425]}, "properties": {"cell_key": "309_83", "elevation_m": 1361.0, "veg_class": "conifer", "habitat_score": 1.0, "veg_sample_count": 3}}, {"type": "Feature", "geometry": {"type": "Point", "coordinates": [10.125, 45.824999999999996]}, "properties": {"cell_key": "305_67", "elevation_m": 189.0, "veg_class": "broadleaf", "habitat_score": 1.0, "veg_sample_count": 2}}, {"type": "Feature", "geometry": {"type": "Point", "coordinates": [11.325, 46.725]}, "properties": {"cell_key": "311_75", "elevation_m": 1568.0, "veg_class": "conifer", "habitat_score": 0.706, "veg_sample_count": 1}}, {"type": "Feature", "geometry": {"type": "Point", "coordinates": [9.674999999999999, 44.175]}, "properties": {"cell_key": "294_64", "elevation_m": 559.0, "veg_class": "conifer", "habitat_score": 1.0, "veg_sample_count": 4}}, {"type": "Feature", "geometry": {"type": "Point", "coordinates": [8.174999999999999, 44.175]}, "properties": {"cell_key": "294_54", "elevation_m": 1190.0, "veg_class": "broadleaf", "habitat_score": 1.0, "veg_sample_count": 1}}, {"type": "Feature", "geometry": {"type": "Point", "coordinates": [11.174999999999999, 45.824999999999996]}, "properties": {"cell_key": "305_74", "elevation_m": 1907.0, "veg_class": "broadleaf", "habitat_score": 0.15, "veg_sample_count": 5}}, {"type": "Feature", "geometry": {"type": "Point", "coordinates": [10.275, 46.125]}, "properties": {"cell_key": "307_68", "elevation_m": 1924.0, "veg_class": "conifer", "habitat_score": 0.15, "veg_sample_count": 2}}, {"type": "Feature", "geometry": {"type": "Point", "coordinates": [9.375, 45.975]}, "properties": {"cell_key": "306_62", "elevation_m": 1238.0, "veg_class": "conifer", "habitat_score": 1.0, "veg_sample_count": 1}}, {"type": "Feature", "geometry": {"type": "Point", "coordinates": [9.825, 46.275]}, "properties": {"cell_key": "308_65", "elevation_m": 2170.0, "veg_class": "conifer", "habitat_score": 0.15, "veg_sample_count": 1}}, {"type": "Feature", "geometry": {"type": "Point", "coordinates": [7.125, 44.925]}, "properties": {"cell_key": "299_47", "elevation_m": 1014.0, "veg_class": "broadleaf", "habitat_score": 1.0, "veg_sample_count": 9}}, {"type": "Feature", "geometry": {"type": "Point", "coordinates": [8.325, 45.824999999999996]}, "properties": {"cell_key": "305_55", "elevation_m": 983.0, "veg_class": "broadleaf", "habitat_score": 1.0, "veg_sample_count": 5}}, {"type": "Feature", "geometry": {"type": "Point", "coordinates": [8.924999999999999, 45.975]}, "properties": {"cell_key": "306_59", "elevation_m": 298.0, "veg_class": "broadleaf", "habitat_score": 1.0, "veg_sample_count": 5}}, {"type": "Feature", "geometry": {"type": "Point", "coordinates": [11.775, 45.975]}, "properties": {"cell_key": "306_78", "elevation_m": 257.0, "veg_class": "mixed", "habitat_score": 1.0, "veg_sample_count": 2}}, {"type": "Feature", "geometry": {"type": "Point", "coordinates": [10.575, 46.125]}, "properties": {"cell_key": "307_70", "elevation_m": 2688.0, "veg_class": "conifer", "habitat_score": 0.15, "veg_sample_count": 2}}, {"type": "Feature", "geometry": {"type": "Point", "coordinates": [7.125, 44.775]}, "properties": {"cell_key": "298_47", "elevation_m": 1459.0, "veg_class": "broadleaf", "habitat_score": 0.897, "veg_sample_count": 5}}, {"type": "Feature", "geometry": {"type": "Point", "coordinates": [9.525, 44.625]}, "properties": {"cell_key": "297_63", "elevation_m": 1104.0, "veg_class": "broadleaf", "habitat_score": 1.0, "veg_sample_count": 2}}, {"type": "Feature", "geometry": {"type": "Point", "coordinates": [7.125, 45.675]}, "properties": {"cell_key": "304_47", "elevation_m": 1661.0, "veg_class": "conifer", "habitat_score": 0.543, "veg_sample_count": 3}}, {"type": "Feature", "geometry": {"type": "Point", "coordinates": [16.425, 39.375]}, "properties": {"cell_key": "262_109", "elevation_m": 1230.0, "veg_class": "conifer", "habitat_score": 1.0, "veg_sample_count": 2}}, {"type": "Feature", "geometry": {"type": "Point", "coordinates": [12.075, 46.425]}, "properties": {"cell_key": "309_80", "elevation_m": 1877.0, "veg_class": "mixed", "habitat_score": 0.15, "veg_sample_count": 2}}, {"type": "Feature", "geometry": {"type": "Point", "coordinates": [8.625, 45.975]}, "properties": {"cell_key": "306_57", "elevation_m": 475.0, "veg_class": "broadleaf", "habitat_score": 1.0, "veg_sample_count": 1}}, {"type": "Feature", "geometry": {"type": "Point", "coordinates": [11.924999999999999, 46.725]}, "properties": {"cell_key": "311_79", "elevation_m": 1477.0, "veg_class": "conifer", "habitat_score": 0.865, "veg_sample_count": 8}}, {"type": "Feature", "geometry": {"type": "Point", "coordinates": [8.475, 45.975]}, "properties": {"cell_key": "306_56", "elevation_m": 782.0, "veg_class": "broadleaf", "habitat_score": 1.0, "veg_sample_count": 2}}, {"type": "Feature", "geometry": {"type": "Point", "coordinates": [9.825, 44.775]}, "properties": {"cell_key": "298_65", "elevation_m": 606.0, "veg_class": "none", "habitat_score": 0.1, "veg_sample_count": 1}}, {"type": "Feature", "geometry": {"type": "Point", "coordinates": [8.025, 45.525]}, "properties": {"cell_key": "303_53", "elevation_m": 334.0, "veg_class": "none", "habitat_score": 0.1, "veg_sample_count": 2}}, {"type": "Feature", "geometry": {"type": "Point", "coordinates": [8.325, 45.675]}, "properties": {"cell_key": "304_55", "elevation_m": 314.0, "veg_class": "broadleaf", "habitat_score": 1.0, "veg_sample_count": 4}}, {"type": "Feature", "geometry": {"type": "Point", "coordinates": [9.375, 44.775]}, "properties": {"cell_key": "298_62", "elevation_m": 386.0, "veg_class": "none", "habitat_score": 0.1, "veg_sample_count": 1}}, {"type": "Feature", "geometry": {"type": "Point", "coordinates": [8.174999999999999, 45.824999999999996]}, "properties": {"cell_key": "305_54", "elevation_m": 518.0, "veg_class": "broadleaf", "habitat_score": 1.0, "veg_sample_count": 4}}, {"type": "Feature", "geometry": {"type": "Point", "coordinates": [8.475, 44.324999999999996]}, "properties": {"cell_key": "295_56", "elevation_m": 113.0, "veg_class": "broadleaf", "habitat_score": 1.0, "veg_sample_count": 6}}, {"type": "Feature", "geometry": {"type": "Point", "coordinates": [9.075, 45.975]}, "properties": {"cell_key": "306_60", "elevation_m": 794.0, "veg_class": "broadleaf", "habitat_score": 1.0, "veg_sample_count": 5}}, {"type": "Feature", "geometry": {"type": "Point", "coordinates": [10.125, 46.574999999999996]}, "properties": {"cell_key": "310_67", "elevation_m": 2363.0, "veg_class": "none", "habitat_score": 0.015, "veg_sample_count": 1}}, {"type": "Feature", "geometry": {"type": "Point", "coordinates": [9.375, 46.125]}, "properties": {"cell_key": "307_62", "elevation_m": 299.0, "veg_class": "broadleaf", "habitat_score": 1.0, "veg_sample_count": 2}}, {"type": "Feature", "geometry": {"type": "Point", "coordinates": [12.075, 47.025]}, "properties": {"cell_key": "313_80", "elevation_m": 1586.0, "veg_class": "conifer", "habitat_score": 0.674, "veg_sample_count": 1}}, {"type": "Feature", "geometry": {"type": "Point", "coordinates": [9.825, 45.675]}, "properties": {"cell_key": "304_65", "elevation_m": 239.0, "veg_class": "broadleaf", "habitat_score": 1.0, "veg_sample_count": 2}}, {"type": "Feature", "geometry": {"type": "Point", "coordinates": [16.425, 38.625]}, "properties": {"cell_key": "257_109", "elevation_m": 1009.0, "veg_class": "broadleaf", "habitat_score": 1.0, "veg_sample_count": 2}}, {"type": "Feature", "geometry": {"type": "Point", "coordinates": [8.775, 45.975]}, "properties": {"cell_key": "306_58", "elevation_m": 601.0, "veg_class": "broadleaf", "habitat_score": 1.0, "veg_sample_count": 3}}, {"type": "Feature", "geometry": {"type": "Point", "coordinates": [8.625, 45.824999999999996]}, "properties": {"cell_key": "305_57", "elevation_m": 198.0, "veg_class": "none", "habitat_score": 0.1, "veg_sample_count": 2}}, {"type": "Feature", "geometry": {"type": "Point", "coordinates": [7.2749999999999995, 44.775]}, "properties": {"cell_key": "298_48", "elevation_m": 631.0, "veg_class": "broadleaf", "habitat_score": 1.0, "veg_sample_count": 4}}, {"type": "Feature", "geometry": {"type": "Point", "coordinates": [7.725, 45.525]}, "properties": {"cell_key": "303_51", "elevation_m": 1356.0, "veg_class": "none", "habitat_score": 0.1, "veg_sample_count": 1}}, {"type": "Feature", "geometry": {"type": "Point", "coordinates": [10.725, 43.875]}, "properties": {"cell_key": "292_71", "elevation_m": 41.0, "veg_class": "mixed", "habitat_score": 0.892, "veg_sample_count": 4}}, {"type": "Feature", "geometry": {"type": "Point", "coordinates": [16.575, 39.225]}, "properties": {"cell_key": "261_110", "elevation_m": 1716.0, "veg_class": "mixed", "habitat_score": 0.447, "veg_sample_count": 2}}, {"type": "Feature", "geometry": {"type": "Point", "coordinates": [7.425, 44.324999999999996]}, "properties": {"cell_key": "295_49", "elevation_m": 910.0, "veg_class": "broadleaf", "habitat_score": 1.0, "veg_sample_count": 2}}, {"type": "Feature", "geometry": {"type": "Point", "coordinates": [13.575, 46.425]}, "properties": {"cell_key": "309_90", "elevation_m": 1237.0, "veg_class": "broadleaf", "habitat_score": 1.0, "veg_sample_count": 1}}, {"type": "Feature", "geometry": {"type": "Point", "coordinates": [11.625, 46.875]}, "properties": {"cell_key": "312_77", "elevation_m": 1622.0, "veg_class": "none", "habitat_score": 0.061, "veg_sample_count": 1}}, {"type": "Feature", "geometry": {"type": "Point", "coordinates": [10.575, 45.824999999999996]}, "properties": {"cell_key": "305_70", "elevation_m": 1039.0, "veg_class": "broadleaf", "habitat_score": 1.0, "veg_sample_count": 2}}, {"type": "Feature", "geometry": {"type": "Point", "coordinates": [11.174999999999999, 44.175]}, "properties": {"cell_key": "294_74", "elevation_m": 561.0, "veg_class": "broadleaf", "habitat_score": 1.0, "veg_sample_count": 2}}, {"type": "Feature", "geometry": {"type": "Point", "coordinates": [8.625, 44.475]}, "properties": {"cell_key": "296_57", "elevation_m": 909.0, "veg_class": "broadleaf", "habitat_score": 1.0, "veg_sample_count": 3}}, {"type": "Feature", "geometry": {"type": "Point", "coordinates": [16.575, 39.375]}, "properties": {"cell_key": "262_110", "elevation_m": 1371.0, "veg_class": "conifer", "habitat_score": 1.0, "veg_sample_count": 6}}, {"type": "Feature", "geometry": {"type": "Point", "coordinates": [9.225, 46.275]}, "properties": {"cell_key": "308_61", "elevation_m": 1946.0, "veg_class": "shrub", "habitat_score": 0.075, "veg_sample_count": 1}}, {"type": "Feature", "geometry": {"type": "Point", "coordinates": [8.174999999999999, 46.125]}, "properties": {"cell_key": "307_54", "elevation_m": 1209.0, "veg_class": "broadleaf", "habitat_score": 1.0, "veg_sample_count": 1}}, {"type": "Feature", "geometry": {"type": "Point", "coordinates": [9.674999999999999, 46.125]}, "properties": {"cell_key": "307_64", "elevation_m": 1036.0, "veg_class": "conifer", "habitat_score": 1.0, "veg_sample_count": 8}}, {"type": "Feature", "geometry": {"type": "Point", "coordinates": [10.125, 46.425]}, "properties": {"cell_key": "309_67", "elevation_m": 2798.0, "veg_class": "shrub", "habitat_score": 0.075, "veg_sample_count": 3}}, {"type": "Feature", "geometry": {"type": "Point", "coordinates": [10.424999999999999, 45.824999999999996]}, "properties": {"cell_key": "305_69", "elevation_m": 1335.0, "veg_class": "conifer", "habitat_score": 1.0, "veg_sample_count": 1}}, {"type": "Feature", "geometry": {"type": "Point", "coordinates": [8.924999999999999, 45.824999999999996]}, "properties": {"cell_key": "305_59", "elevation_m": 427.0, "veg_class": "broadleaf", "habitat_score": 1.0, "veg_sample_count": 7}}, {"type": "Feature", "geometry": {"type": "Point", "coordinates": [8.475, 44.475]}, "properties": {"cell_key": "296_56", "elevation_m": 500.0, "veg_class": "broadleaf", "habitat_score": 1.0, "veg_sample_count": 1}}, {"type": "Feature", "geometry": {"type": "Point", "coordinates": [10.725, 43.125]}, "properties": {"cell_key": "287_71", "elevation_m": 114.0, "veg_class": "none", "habitat_score": 0.1, "veg_sample_count": 1}}, {"type": "Feature", "geometry": {"type": "Point", "coordinates": [9.225, 45.824999999999996]}, "properties": {"cell_key": "305_61", "elevation_m": 300.0, "veg_class": "broadleaf", "habitat_score": 1.0, "veg_sample_count": 2}}, {"type": "Feature", "geometry": {"type": "Point", "coordinates": [12.375, 46.425]}, "properties": {"cell_key": "309_82", "elevation_m": 904.0, "veg_class": "conifer", "habitat_score": 1.0, "veg_sample_count": 1}}, {"type": "Feature", "geometry": {"type": "Point", "coordinates": [12.975, 42.074999999999996]}, "properties": {"cell_key": "280_86", "elevation_m": 961.0, "veg_class": "none", "habitat_score": 0.1, "veg_sample_count": 1}}, {"type": "Feature", "geometry": {"type": "Point", "coordinates": [16.275, 38.475]}, "properties": {"cell_key": "256_108", "elevation_m": 1056.0, "veg_class": "mixed", "habitat_score": 1.0, "veg_sample_count": 2}}, {"type": "Feature", "geometry": {"type": "Point", "coordinates": [8.625, 44.625]}, "properties": {"cell_key": "297_57", "elevation_m": 198.0, "veg_class": "none", "habitat_score": 0.1, "veg_sample_count": 1}}, {"type": "Feature", "geometry": {"type": "Point", "coordinates": [8.924999999999999, 44.625]}, "properties": {"cell_key": "297_59", "elevation_m": 692.0, "veg_class": "mixed", "habitat_score": 1.0, "veg_sample_count": 4}}, {"type": "Feature", "geometry": {"type": "Point", "coordinates": [16.724999999999998, 39.074999999999996]}, "properties": {"cell_key": "260_111", "elevation_m": 1237.0, "veg_class": "none", "habitat_score": 0.1, "veg_sample_count": 1}}, {"type": "Feature", "geometry": {"type": "Point", "coordinates": [7.2749999999999995, 44.324999999999996]}, "properties": {"cell_key": "295_48", "elevation_m": 888.0, "veg_class": "mixed", "habitat_score": 1.0, "veg_sample_count": 1}}, {"type": "Feature", "geometry": {"type": "Point", "coordinates": [11.924999999999999, 46.125]}, "properties": {"cell_key": "307_79", "elevation_m": 856.0, "veg_class": "mixed", "habitat_score": 1.0, "veg_sample_count": 2}}, {"type": "Feature", "geometry": {"type": "Point", "coordinates": [10.725, 42.975]}, "properties": {"cell_key": "286_71", "elevation_m": 119.0, "veg_class": "broadleaf", "habitat_score": 1.0, "veg_sample_count": 1}}, {"type": "Feature", "geometry": {"type": "Point", "coordinates": [15.975, 38.175]}, "properties": {"cell_key": "254_106", "elevation_m": 1002.0, "veg_class": "broadleaf", "habitat_score": 1.0, "veg_sample_count": 2}}, {"type": "Feature", "geometry": {"type": "Point", "coordinates": [12.075, 42.375]}, "properties": {"cell_key": "282_80", "elevation_m": 286.0, "veg_class": "broadleaf", "habitat_score": 1.0, "veg_sample_count": 3}}, {"type": "Feature", "geometry": {"type": "Point", "coordinates": [12.975, 41.475]}, "properties": {"cell_key": "276_86", "elevation_m": 7.0, "veg_class": "none", "habitat_score": 0.048, "veg_sample_count": 1}}, {"type": "Feature", "geometry": {"type": "Point", "coordinates": [7.725, 45.074999999999996]}, "properties": {"cell_key": "300_51", "elevation_m": 222.0, "veg_class": "broadleaf", "habitat_score": 1.0, "veg_sample_count": 6}}, {"type": "Feature", "geometry": {"type": "Point", "coordinates": [15.075, 40.875]}, "properties": {"cell_key": "272_100", "elevation_m": 623.0, "veg_class": "broadleaf", "habitat_score": 1.0, "veg_sample_count": 1}}, {"type": "Feature", "geometry": {"type": "Point", "coordinates": [8.625, 45.375]}, "properties": {"cell_key": "302_57", "elevation_m": 134.0, "veg_class": "none", "habitat_score": 0.1, "veg_sample_count": 1}}, {"type": "Feature", "geometry": {"type": "Point", "coordinates": [7.875, 45.525]}, "properties": {"cell_key": "303_52", "elevation_m": 783.0, "veg_class": "mixed", "habitat_score": 1.0, "veg_sample_count": 5}}, {"type": "Feature", "geometry": {"type": "Point", "coordinates": [11.325, 44.475]}, "properties": {"cell_key": "296_75", "elevation_m": 206.0, "veg_class": "broadleaf", "habitat_score": 1.0, "veg_sample_count": 1}}, {"type": "Feature", "geometry": {"type": "Point", "coordinates": [10.575, 43.875]}, "properties": {"cell_key": "292_70", "elevation_m": 26.0, "veg_class": "mixed", "habitat_score": 0.712, "veg_sample_count": 2}}, {"type": "Feature", "geometry": {"type": "Point", "coordinates": [7.2749999999999995, 44.625]}, "properties": {"cell_key": "297_48", "elevation_m": 1329.0, "veg_class": "broadleaf", "habitat_score": 1.0, "veg_sample_count": 2}}, {"type": "Feature", "geometry": {"type": "Point", "coordinates": [9.225, 46.125]}, "properties": {"cell_key": "307_61", "elevation_m": 786.0, "veg_class": "conifer", "habitat_score": 1.0, "veg_sample_count": 2}}, {"type": "Feature", "geometry": {"type": "Point", "coordinates": [7.2749999999999995, 45.375]}, "properties": {"cell_key": "302_48", "elevation_m": 1424.0, "veg_class": "shrub", "habitat_score": 0.479, "veg_sample_count": 1}}, {"type": "Feature", "geometry": {"type": "Point", "coordinates": [8.775, 44.475]}, "properties": {"cell_key": "296_58", "elevation_m": 455.0, "veg_class": "none", "habitat_score": 0.1, "veg_sample_count": 2}}, {"type": "Feature", "geometry": {"type": "Point", "coordinates": [9.375, 45.824999999999996]}, "properties": {"cell_key": "305_62", "elevation_m": 541.0, "veg_class": "broadleaf", "habitat_score": 1.0, "veg_sample_count": 5}}, {"type": "Feature", "geometry": {"type": "Point", "coordinates": [12.674999999999999, 46.574999999999996]}, "properties": {"cell_key": "310_84", "elevation_m": 1586.0, "veg_class": "conifer", "habitat_score": 0.674, "veg_sample_count": 2}}, {"type": "Feature", "geometry": {"type": "Point", "coordinates": [9.225, 44.925]}, "properties": {"cell_key": "299_61", "elevation_m": 396.0, "veg_class": "none", "habitat_score": 0.1, "veg_sample_count": 1}}, {"type": "Feature", "geometry": {"type": "Point", "coordinates": [9.375, 46.425]}, "properties": {"cell_key": "309_62", "elevation_m": 1972.0, "veg_class": "conifer", "habitat_score": 0.15, "veg_sample_count": 1}}, {"type": "Feature", "geometry": {"type": "Point", "coordinates": [13.424999999999999, 42.675]}, "properties": {"cell_key": "284_89", "elevation_m": 1482.0, "veg_class": "broadleaf", "habitat_score": 0.857, "veg_sample_count": 2}}, {"type": "Feature", "geometry": {"type": "Point", "coordinates": [10.575, 44.025]}, "properties": {"cell_key": "293_70", "elevation_m": 429.0, "veg_class": "broadleaf", "habitat_score": 1.0, "veg_sample_count": 2}}, {"type": "Feature", "geometry": {"type": "Point", "coordinates": [11.025, 46.725]}, "properties": {"cell_key": "311_73", "elevation_m": 2452.0, "veg_class": "shrub", "habitat_score": 0.075, "veg_sample_count": 2}}, {"type": "Feature", "geometry": {"type": "Point", "coordinates": [7.875, 44.324999999999996]}, "properties": {"cell_key": "295_52", "elevation_m": 635.0, "veg_class": "broadleaf", "habitat_score": 1.0, "veg_sample_count": 1}}, {"type": "Feature", "geometry": {"type": "Point", "coordinates": [7.574999999999999, 45.074999999999996]}, "properties": {"cell_key": "300_50", "elevation_m": 302.0, "veg_class": "none", "habitat_score": 0.1, "veg_sample_count": 2}}, {"type": "Feature", "geometry": {"type": "Point", "coordinates": [6.975, 45.824999999999996]}, "properties": {"cell_key": "305_46", "elevation_m": 1502.0, "veg_class": "shrub", "habitat_score": 0.411, "veg_sample_count": 1}}, {"type": "Feature", "geometry": {"type": "Point", "coordinates": [9.375, 44.324999999999996]}, "properties": {"cell_key": "295_62", "elevation_m": 359.0, "veg_class": "broadleaf", "habitat_score": 1.0, "veg_sample_count": 3}}, {"type": "Feature", "geometry": {"type": "Point", "coordinates": [11.924999999999999, 45.975]}, "properties": {"cell_key": "306_79", "elevation_m": 613.0, "veg_class": "broadleaf", "habitat_score": 1.0, "veg_sample_count": 2}}, {"type": "Feature", "geometry": {"type": "Point", "coordinates": [11.174999999999999, 42.975]}, "properties": {"cell_key": "286_74", "elevation_m": 204.0, "veg_class": "broadleaf", "habitat_score": 1.0, "veg_sample_count": 2}}, {"type": "Feature", "geometry": {"type": "Point", "coordinates": [10.725, 42.824999999999996]}, "properties": {"cell_key": "285_71", "elevation_m": 0.0, "veg_class": "none", "habitat_score": 0.04, "veg_sample_count": 1}}, {"type": "Feature", "geometry": {"type": "Point", "coordinates": [11.775, 42.525]}, "properties": {"cell_key": "283_78", "elevation_m": 397.0, "veg_class": "broadleaf", "habitat_score": 1.0, "veg_sample_count": 2}}, {"type": "Feature", "geometry": {"type": "Point", "coordinates": [13.125, 42.225]}, "properties": {"cell_key": "281_87", "elevation_m": 742.0, "veg_class": "broadleaf", "habitat_score": 1.0, "veg_sample_count": 3}}, {"type": "Feature", "geometry": {"type": "Point", "coordinates": [12.975, 41.324999999999996]}, "properties": {"cell_key": "275_86", "elevation_m": 0.0, "veg_class": "broadleaf", "habitat_score": 0.4, "veg_sample_count": 3}}, {"type": "Feature", "geometry": {"type": "Point", "coordinates": [12.375, 43.125]}, "properties": {"cell_key": "287_82", "elevation_m": 427.0, "veg_class": "none", "habitat_score": 0.1, "veg_sample_count": 1}}, {"type": "Feature", "geometry": {"type": "Point", "coordinates": [14.325, 41.324999999999996]}, "properties": {"cell_key": "275_95", "elevation_m": 98.0, "veg_class": "broadleaf", "habitat_score": 1.0, "veg_sample_count": 1}}, {"type": "Feature", "geometry": {"type": "Point", "coordinates": [11.625, 42.824999999999996]}, "properties": {"cell_key": "285_77", "elevation_m": 806.0, "veg_class": "broadleaf", "habitat_score": 1.0, "veg_sample_count": 4}}, {"type": "Feature", "geometry": {"type": "Point", "coordinates": [9.674999999999999, 44.475]}, "properties": {"cell_key": "296_64", "elevation_m": 534.0, "veg_class": "broadleaf", "habitat_score": 1.0, "veg_sample_count": 4}}, {"type": "Feature", "geometry": {"type": "Point", "coordinates": [8.924999999999999, 39.225]}, "properties": {"cell_key": "261_59", "elevation_m": 71.0, "veg_class": "none", "habitat_score": 0.1, "veg_sample_count": 2}}, {"type": "Feature", "geometry": {"type": "Point", "coordinates": [16.125, 39.074999999999996]}, "properties": {"cell_key": "260_107", "elevation_m": 283.0, "veg_class": "shrub", "habitat_score": 0.5, "veg_sample_count": 1}}, {"type": "Feature", "geometry": {"type": "Point", "coordinates": [8.025, 44.324999999999996]}, "properties": {"cell_key": "295_53", "elevation_m": 829.0, "veg_class": "broadleaf", "habitat_score": 1.0, "veg_sample_count": 1}}, {"type": "Feature", "geometry": {"type": "Point", "coordinates": [12.375, 42.525]}, "properties": {"cell_key": "283_82", "elevation_m": 284.0, "veg_class": "none", "habitat_score": 0.1, "veg_sample_count": 1}}, {"type": "Feature", "geometry": {"type": "Point", "coordinates": [12.075, 42.074999999999996]}, "properties": {"cell_key": "280_80", "elevation_m": 248.0, "veg_class": "broadleaf", "habitat_score": 1.0, "veg_sample_count": 3}}, {"type": "Feature", "geometry": {"type": "Point", "coordinates": [9.975, 44.775]}, "properties": {"cell_key": "298_66", "elevation_m": 347.0, "veg_class": "broadleaf", "habitat_score": 1.0, "veg_sample_count": 1}}, {"type": "Feature", "geometry": {"type": "Point", "coordinates": [11.025, 43.725]}, "properties": {"cell_key": "291_73", "elevation_m": 32.0, "veg_class": "none", "habitat_score": 0.078, "veg_sample_count": 1}}, {"type": "Feature", "geometry": {"type": "Point", "coordinates": [10.875, 42.824999999999996]}, "properties": {"cell_key": "285_72", "elevation_m": 450.0, "veg_class": "broadleaf", "habitat_score": 1.0, "veg_sample_count": 1}}, {"type": "Feature", "geometry": {"type": "Point", "coordinates": [9.075, 44.475]}, "properties": {"cell_key": "296_60", "elevation_m": 838.0, "veg_class": "broadleaf", "habitat_score": 1.0, "veg_sample_count": 1}}, {"type": "Feature", "geometry": {"type": "Point", "coordinates": [12.975, 41.775]}, "properties": {"cell_key": "278_86", "elevation_m": 247.0, "veg_class": "broadleaf", "habitat_score": 1.0, "veg_sample_count": 1}}, {"type": "Feature", "geometry": {"type": "Point", "coordinates": [7.875, 45.225]}, "properties": {"cell_key": "301_52", "elevation_m": 211.0, "veg_class": "broadleaf", "habitat_score": 1.0, "veg_sample_count": 1}}, {"type": "Feature", "geometry": {"type": "Point", "coordinates": [8.325, 44.625]}, "properties": {"cell_key": "297_55", "elevation_m": 440.0, "veg_class": "mixed", "habitat_score": 1.0, "veg_sample_count": 1}}, {"type": "Feature", "geometry": {"type": "Point", "coordinates": [16.125, 38.324999999999996]}, "properties": {"cell_key": "255_107", "elevation_m": 850.0, "veg_class": "broadleaf", "habitat_score": 1.0, "veg_sample_count": 2}}, {"type": "Feature", "geometry": {"type": "Point", "coordinates": [9.375, 45.675]}, "properties": {"cell_key": "304_62", "elevation_m": 257.0, "veg_class": "none", "habitat_score": 0.1, "veg_sample_count": 1}}, {"type": "Feature", "geometry": {"type": "Point", "coordinates": [8.174999999999999, 44.625]}, "properties": {"cell_key": "297_54", "elevation_m": 447.0, "veg_class": "none", "habitat_score": 0.1, "veg_sample_count": 1}}, {"type": "Feature", "geometry": {"type": "Point", "coordinates": [10.424999999999999, 43.574999999999996]}, "properties": {"cell_key": "290_69", "elevation_m": 39.0, "veg_class": "broadleaf", "habitat_score": 0.868, "veg_sample_count": 5}}, {"type": "Feature", "geometry": {"type": "Point", "coordinates": [16.275, 39.074999999999996]}, "properties": {"cell_key": "260_108", "elevation_m": 559.0, "veg_class": "broadleaf", "habitat_score": 1.0, "veg_sample_count": 2}}, {"type": "Feature", "geometry": {"type": "Point", "coordinates": [11.174999999999999, 45.525]}, "properties": {"cell_key": "303_74", "elevation_m": 522.0, "veg_class": "broadleaf", "habitat_score": 1.0, "veg_sample_count": 2}}, {"type": "Feature", "geometry": {"type": "Point", "coordinates": [13.125, 41.625]}, "properties": {"cell_key": "277_87", "elevation_m": 1054.0, "veg_class": "none", "habitat_score": 0.1, "veg_sample_count": 1}}, {"type": "Feature", "geometry": {"type": "Point", "coordinates": [11.475, 42.824999999999996]}, "properties": {"cell_key": "285_76", "elevation_m": 841.0, "veg_class": "broadleaf", "habitat_score": 1.0, "veg_sample_count": 1}}, {"type": "Feature", "geometry": {"type": "Point", "coordinates": [10.424999999999999, 43.725]}, "properties": {"cell_key": "291_69", "elevation_m": 2.0, "veg_class": "mixed", "habitat_score": 0.424, "veg_sample_count": 2}}, {"type": "Feature", "geometry": {"type": "Point", "coordinates": [12.225, 42.225]}, "properties": {"cell_key": "281_81", "elevation_m": 288.0, "veg_class": "broadleaf", "habitat_score": 1.0, "veg_sample_count": 5}}, {"type": "Feature", "geometry": {"type": "Point", "coordinates": [13.875, 41.175]}, "properties": {"cell_key": "274_92", "elevation_m": 20.0, "veg_class": "broadleaf", "habitat_score": 0.64, "veg_sample_count": 1}}, {"type": "Feature", "geometry": {"type": "Point", "coordinates": [11.025, 42.975]}, "properties": {"cell_key": "286_73", "elevation_m": 65.0, "veg_class": "none", "habitat_score": 0.1, "veg_sample_count": 1}}, {"type": "Feature", "geometry": {"type": "Point", "coordinates": [11.325, 42.675]}, "properties": {"cell_key": "284_75", "elevation_m": 486.0, "veg_class": "broadleaf", "habitat_score": 1.0, "veg_sample_count": 1}}, {"type": "Feature", "geometry": {"type": "Point", "coordinates": [10.875, 43.125]}, "properties": {"cell_key": "287_72", "elevation_m": 314.0, "veg_class": "broadleaf", "habitat_score": 1.0, "veg_sample_count": 2}}, {"type": "Feature", "geometry": {"type": "Point", "coordinates": [12.375, 43.425]}, "properties": {"cell_key": "289_82", "elevation_m": 609.0, "veg_class": "broadleaf", "habitat_score": 1.0, "veg_sample_count": 1}}, {"type": "Feature", "geometry": {"type": "Point", "coordinates": [9.225, 40.875]}, "properties": {"cell_key": "272_61", "elevation_m": 598.0, "veg_class": "broadleaf", "habitat_score": 1.0, "veg_sample_count": 1}}, {"type": "Feature", "geometry": {"type": "Point", "coordinates": [13.875, 37.875]}, "properties": {"cell_key": "252_92", "elevation_m": 133.0, "veg_class": "broadleaf", "habitat_score": 1.0, "veg_sample_count": 1}}, {"type": "Feature", "geometry": {"type": "Point", "coordinates": [14.325, 38.025]}, "properties": {"cell_key": "253_95", "elevation_m": 0.0, "veg_class": "none", "habitat_score": 0.04, "veg_sample_count": 2}}, {"type": "Feature", "geometry": {"type": "Point", "coordinates": [9.375, 40.875]}, "properties": {"cell_key": "272_62", "elevation_m": 268.0, "veg_class": "broadleaf", "habitat_score": 1.0, "veg_sample_count": 1}}, {"type": "Feature", "geometry": {"type": "Point", "coordinates": [11.475, 42.675]}, "properties": {"cell_key": "284_76", "elevation_m": 194.0, "veg_class": "broadleaf", "habitat_score": 1.0, "veg_sample_count": 3}}, {"type": "Feature", "geometry": {"type": "Point", "coordinates": [8.625, 44.775]}, "properties": {"cell_key": "298_57", "elevation_m": 135.0, "veg_class": "none", "habitat_score": 0.1, "veg_sample_count": 1}}, {"type": "Feature", "geometry": {"type": "Point", "coordinates": [15.674999999999999, 38.175]}, "properties": {"cell_key": "254_104", "elevation_m": 118.0, "veg_class": "none", "habitat_score": 0.1, "veg_sample_count": 1}}, {"type": "Feature", "geometry": {"type": "Point", "coordinates": [14.924999999999999, 38.175]}, "properties": {"cell_key": "254_99", "elevation_m": 321.0, "veg_class": "none", "habitat_score": 0.1, "veg_sample_count": 2}}, {"type": "Feature", "geometry": {"type": "Point", "coordinates": [11.775, 45.375]}, "properties": {"cell_key": "302_78", "elevation_m": 14.0, "veg_class": "none", "habitat_score": 0.057, "veg_sample_count": 1}}, {"type": "Feature", "geometry": {"type": "Point", "coordinates": [9.375, 39.225]}, "properties": {"cell_key": "261_62", "elevation_m": 432.0, "veg_class": "broadleaf", "habitat_score": 1.0, "veg_sample_count": 3}}, {"type": "Feature", "geometry": {"type": "Point", "coordinates": [9.674999999999999, 45.675]}, "properties": {"cell_key": "304_64", "elevation_m": 239.0, "veg_class": "broadleaf", "habitat_score": 1.0, "veg_sample_count": 3}}, {"type": "Feature", "geometry": {"type": "Point", "coordinates": [13.125, 41.175]}, "properties": {"cell_key": "274_87", "elevation_m": 0.0, "veg_class": "broadleaf", "habitat_score": 0.4, "veg_sample_count": 1}}, {"type": "Feature", "geometry": {"type": "Point", "coordinates": [15.375, 40.125]}, "properties": {"cell_key": "267_102", "elevation_m": 167.0, "veg_class": "none", "habitat_score": 0.1, "veg_sample_count": 1}}, {"type": "Feature", "geometry": {"type": "Point", "coordinates": [14.025, 37.875]}, "properties": {"cell_key": "252_93", "elevation_m": 1591.0, "veg_class": "shrub", "habitat_score": 0.333, "veg_sample_count": 1}}, {"type": "Feature", "geometry": {"type": "Point", "coordinates": [11.174999999999999, 43.725]}, "properties": {"cell_key": "291_74", "elevation_m": 160.0, "veg_class": "mixed", "habitat_score": 1.0, "veg_sample_count": 8}}, {"type": "Feature", "geometry": {"type": "Point", "coordinates": [8.775, 38.925]}, "properties": {"cell_key": "259_58", "elevation_m": 85.0, "veg_class": "none", "habitat_score": 0.1, "veg_sample_count": 1}}, {"type": "Feature", "geometry": {"type": "Point", "coordinates": [9.375, 40.725]}, "properties": {"cell_key": "271_62", "elevation_m": 653.0, "veg_class": "broadleaf", "habitat_score": 1.0, "veg_sample_count": 1}}, {"type": "Feature", "geometry": {"type": "Point", "coordinates": [8.924999999999999, 39.074999999999996]}, "properties": {"cell_key": "260_59", "elevation_m": 304.0, "veg_class": "broadleaf", "habitat_score": 1.0, "veg_sample_count": 2}}, {"type": "Feature", "geometry": {"type": "Point", "coordinates": [11.174999999999999, 43.125]}, "properties": {"cell_key": "287_74", "elevation_m": 363.0, "veg_class": "none", "habitat_score": 0.1, "veg_sample_count": 1}}, {"type": "Feature", "geometry": {"type": "Point", "coordinates": [7.875, 44.775]}, "properties": {"cell_key": "298_52", "elevation_m": 327.0, "veg_class": "broadleaf", "habitat_score": 1.0, "veg_sample_count": 1}}, {"type": "Feature", "geometry": {"type": "Point", "coordinates": [14.025, 38.025]}, "properties": {"cell_key": "253_93", "elevation_m": 279.0, "veg_class": "broadleaf", "habitat_score": 1.0, "veg_sample_count": 1}}, {"type": "Feature", "geometry": {"type": "Point", "coordinates": [8.325, 39.074999999999996]}, "properties": {"cell_key": "260_55", "elevation_m": 0.0, "veg_class": "none", "habitat_score": 0.04, "veg_sample_count": 1}}, {"type": "Feature", "geometry": {"type": "Point", "coordinates": [11.174999999999999, 42.824999999999996]}, "properties": {"cell_key": "285_74", "elevation_m": 133.0, "veg_class": "none", "habitat_score": 0.1, "veg_sample_count": 1}}, {"type": "Feature", "geometry": {"type": "Point", "coordinates": [11.475, 42.525]}, "properties": {"cell_key": "283_76", "elevation_m": 231.0, "veg_class": "broadleaf", "habitat_score": 1.0, "veg_sample_count": 1}}, {"type": "Feature", "geometry": {"type": "Point", "coordinates": [12.674999999999999, 41.775]}, "properties": {"cell_key": "278_84", "elevation_m": 403.0, "veg_class": "broadleaf", "habitat_score": 1.0, "veg_sample_count": 3}}, {"type": "Feature", "geometry": {"type": "Point", "coordinates": [9.674999999999999, 44.925]}, "properties": {"cell_key": "299_64", "elevation_m": 152.0, "veg_class": "none", "habitat_score": 0.1, "veg_sample_count": 1}}, {"type": "Feature", "geometry": {"type": "Point", "coordinates": [10.725, 43.725]}, "properties": {"cell_key": "291_71", "elevation_m": 84.0, "veg_class": "conifer", "habitat_score": 1.0, "veg_sample_count": 2}}, {"type": "Feature", "geometry": {"type": "Point", "coordinates": [8.475, 44.775]}, "properties": {"cell_key": "298_56", "elevation_m": 224.0, "veg_class": "none", "habitat_score": 0.1, "veg_sample_count": 1}}, {"type": "Feature", "geometry": {"type": "Point", "coordinates": [11.475, 45.375]}, "properties": {"cell_key": "302_76", "elevation_m": 13.0, "veg_class": "broadleaf", "habitat_score": 0.556, "veg_sample_count": 3}}, {"type": "Feature", "geometry": {"type": "Point", "coordinates": [8.325, 44.475]}, "properties": {"cell_key": "296_55", "elevation_m": 444.0, "veg_class": "mixed", "habitat_score": 1.0, "veg_sample_count": 1}}, {"type": "Feature", "geometry": {"type": "Point", "coordinates": [15.975, 38.324999999999996]}, "properties": {"cell_key": "255_106", "elevation_m": 194.0, "veg_class": "none", "habitat_score": 0.1, "veg_sample_count": 1}}, {"type": "Feature", "geometry": {"type": "Point", "coordinates": [7.875, 44.025]}, "properties": {"cell_key": "293_52", "elevation_m": 533.0, "veg_class": "broadleaf", "habitat_score": 1.0, "veg_sample_count": 2}}, {"type": "Feature", "geometry": {"type": "Point", "coordinates": [9.525, 44.175]}, "properties": {"cell_key": "294_63", "elevation_m": 0.0, "veg_class": "mixed", "habitat_score": 0.4, "veg_sample_count": 1}}, {"type": "Feature", "geometry": {"type": "Point", "coordinates": [12.375, 41.775]}, "properties": {"cell_key": "278_82", "elevation_m": 55.0, "veg_class": "none", "habitat_score": 0.1, "veg_sample_count": 2}}, {"type": "Feature", "geometry": {"type": "Point", "coordinates": [10.575, 45.525]}, "properties": {"cell_key": "303_70", "elevation_m": 65.0, "veg_class": "none", "habitat_score": 0.1, "veg_sample_count": 2}}, {"type": "Feature", "geometry": {"type": "Point", "coordinates": [10.575, 44.475]}, "properties": {"cell_key": "296_70", "elevation_m": 437.0, "veg_class": "broadleaf", "habitat_score": 1.0, "veg_sample_count": 1}}, {"type": "Feature", "geometry": {"type": "Point", "coordinates": [10.125, 44.175]}, "properties": {"cell_key": "294_67", "elevation_m": 343.0, "veg_class": "none", "habitat_score": 0.1, "veg_sample_count": 1}}, {"type": "Feature", "geometry": {"type": "Point", "coordinates": [16.125, 39.975]}, "properties": {"cell_key": "266_107", "elevation_m": 1010.0, "veg_class": "none", "habitat_score": 0.1, "veg_sample_count": 1}}, {"type": "Feature", "geometry": {"type": "Point", "coordinates": [15.075, 37.875]}, "properties": {"cell_key": "252_100", "elevation_m": 595.0, "veg_class": "broadleaf", "habitat_score": 1.0, "veg_sample_count": 1}}, {"type": "Feature", "geometry": {"type": "Point", "coordinates": [8.325, 44.324999999999996]}, "properties": {"cell_key": "295_55", "elevation_m": 472.0, "veg_class": "broadleaf", "habitat_score": 1.0, "veg_sample_count": 1}}, {"type": "Feature", "geometry": {"type": "Point", "coordinates": [11.924999999999999, 42.675]}, "properties": {"cell_key": "284_79", "elevation_m": 384.0, "veg_class": "broadleaf", "habitat_score": 1.0, "veg_sample_count": 1}}, {"type": "Feature", "geometry": {"type": "Point", "coordinates": [9.075, 44.625]}, "properties": {"cell_key": "297_60", "elevation_m": 991.0, "veg_class": "broadleaf", "habitat_score": 1.0, "veg_sample_count": 1}}, {"type": "Feature", "geometry": {"type": "Point", "coordinates": [11.325, 45.675]}, "properties": {"cell_key": "304_75", "elevation_m": 654.0, "veg_class": "broadleaf", "habitat_score": 1.0, "veg_sample_count": 1}}, {"type": "Feature", "geometry": {"type": "Point", "coordinates": [8.775, 45.375]}, "properties": {"cell_key": "302_58", "elevation_m": 120.0, "veg_class": "none", "habitat_score": 0.1, "veg_sample_count": 1}}, {"type": "Feature", "geometry": {"type": "Point", "coordinates": [10.575, 43.125]}, "properties": {"cell_key": "287_70", "elevation_m": 183.0, "veg_class": "broadleaf", "habitat_score": 1.0, "veg_sample_count": 1}}, {"type": "Feature", "geometry": {"type": "Point", "coordinates": [8.025, 45.375]}, "properties": {"cell_key": "302_53", "elevation_m": 305.0, "veg_class": "none", "habitat_score": 0.1, "veg_sample_count": 1}}, {"type": "Feature", "geometry": {"type": "Point", "coordinates": [8.475, 44.625]}, "properties": {"cell_key": "297_56", "elevation_m": 375.0, "veg_class": "broadleaf", "habitat_score": 1.0, "veg_sample_count": 1}}, {"type": "Feature", "geometry": {"type": "Point", "coordinates": [11.475, 43.425]}, "properties": {"cell_key": "289_76", "elevation_m": 645.0, "veg_class": "mixed", "habitat_score": 1.0, "veg_sample_count": 1}}, {"type": "Feature", "geometry": {"type": "Point", "coordinates": [7.875, 45.074999999999996]}, "properties": {"cell_key": "300_52", "elevation_m": 367.0, "veg_class": "broadleaf", "habitat_score": 1.0, "veg_sample_count": 2}}, {"type": "Feature", "geometry": {"type": "Point", "coordinates": [15.225, 38.175]}, "properties": {"cell_key": "254_101", "elevation_m": 21.0, "veg_class": "mixed", "habitat_score": 0.652, "veg_sample_count": 1}}, {"type": "Feature", "geometry": {"type": "Point", "coordinates": [13.725, 45.675]}, "properties": {"cell_key": "304_91", "elevation_m": 0.0, "veg_class": "mixed", "habitat_score": 0.4, "veg_sample_count": 1}}, {"type": "Feature", "geometry": {"type": "Point", "coordinates": [13.275, 41.475]}, "properties": {"cell_key": "276_88", "elevation_m": 446.0, "veg_class": "none", "habitat_score": 0.1, "veg_sample_count": 1}}, {"type": "Feature", "geometry": {"type": "Point", "coordinates": [11.924999999999999, 42.525]}, "properties": {"cell_key": "283_79", "elevation_m": 326.0, "veg_class": "none", "habitat_score": 0.1, "veg_sample_count": 1}}, {"type": "Feature", "geometry": {"type": "Point", "coordinates": [9.075, 39.074999999999996]}, "properties": {"cell_key": "260_60", "elevation_m": 0.0, "veg_class": "none", "habitat_score": 0.04, "veg_sample_count": 1}}, {"type": "Feature", "geometry": {"type": "Point", "coordinates": [13.125, 42.074999999999996]}, "properties": {"cell_key": "280_87", "elevation_m": 1450.0, "veg_class": "broadleaf", "habitat_score": 0.912, "veg_sample_count": 2}}, {"type": "Feature", "geometry": {"type": "Point", "coordinates": [11.325, 44.324999999999996]}, "properties": {"cell_key": "295_75", "elevation_m": 389.0, "veg_class": "none", "habitat_score": 0.1, "veg_sample_count": 1}}, {"type": "Feature", "geometry": {"type": "Point", "coordinates": [15.225, 38.025]}, "properties": {"cell_key": "253_101", "elevation_m": 551.0, "veg_class": "mixed", "habitat_score": 1.0, "veg_sample_count": 1}}, {"type": "Feature", "geometry": {"type": "Point", "coordinates": [14.625, 40.875]}, "properties": {"cell_key": "272_97", "elevation_m": 182.0, "veg_class": "broadleaf", "habitat_score": 1.0, "veg_sample_count": 1}}, {"type": "Feature", "geometry": {"type": "Point", "coordinates": [10.424999999999999, 43.875]}, "properties": {"cell_key": "292_69", "elevation_m": 85.0, "veg_class": "mixed", "habitat_score": 1.0, "veg_sample_count": 2}}, {"type": "Feature", "geometry": {"type": "Point", "coordinates": [11.924999999999999, 42.824999999999996]}, "properties": {"cell_key": "285_79", "elevation_m": 537.0, "veg_class": "broadleaf", "habitat_score": 1.0, "veg_sample_count": 1}}, {"type": "Feature", "geometry": {"type": "Point", "coordinates": [10.575, 46.425]}, "properties": {"cell_key": "309_70", "elevation_m": 2501.0, "veg_class": "conifer", "habitat_score": 0.15, "veg_sample_count": 1}}, {"type": "Feature", "geometry": {"type": "Point", "coordinates": [14.475, 41.475]}, "properties": {"cell_key": "276_96", "elevation_m": 669.0, "veg_class": "broadleaf", "habitat_score": 1.0, "veg_sample_count": 1}}, {"type": "Feature", "geometry": {"type": "Point", "coordinates": [8.924999999999999, 44.475]}, "properties": {"cell_key": "296_59", "elevation_m": 109.0, "veg_class": "none", "habitat_score": 0.1, "veg_sample_count": 3}}, {"type": "Feature", "geometry": {"type": "Point", "coordinates": [12.525, 42.074999999999996]}, "properties": {"cell_key": "280_83", "elevation_m": 107.0, "veg_class": "shrub", "habitat_score": 0.5, "veg_sample_count": 1}}, {"type": "Feature", "geometry": {"type": "Point", "coordinates": [11.025, 42.824999999999996]}, "properties": {"cell_key": "285_73", "elevation_m": 2.0, "veg_class": "none", "habitat_score": 0.042, "veg_sample_count": 1}}, {"type": "Feature", "geometry": {"type": "Point", "coordinates": [14.625, 41.175]}, "properties": {"cell_key": "274_97", "elevation_m": 1009.0, "veg_class": "broadleaf", "habitat_score": 1.0, "veg_sample_count": 3}}, {"type": "Feature", "geometry": {"type": "Point", "coordinates": [8.924999999999999, 45.675]}, "properties": {"cell_key": "304_59", "elevation_m": 265.0, "veg_class": "mixed", "habitat_score": 1.0, "veg_sample_count": 4}}, {"type": "Feature", "geometry": {"type": "Point", "coordinates": [9.225, 44.324999999999996]}, "properties": {"cell_key": "295_61", "elevation_m": 0.0, "veg_class": "mixed", "habitat_score": 0.4, "veg_sample_count": 1}}, {"type": "Feature", "geometry": {"type": "Point", "coordinates": [10.424999999999999, 43.425]}, "properties": {"cell_key": "289_69", "elevation_m": 213.0, "veg_class": "mixed", "habitat_score": 1.0, "veg_sample_count": 2}}, {"type": "Feature", "geometry": {"type": "Point", "coordinates": [14.625, 41.625]}, "properties": {"cell_key": "277_97", "elevation_m": 511.0, "veg_class": "broadleaf", "habitat_score": 1.0, "veg_sample_count": 1}}, {"type": "Feature", "geometry": {"type": "Point", "coordinates": [10.725, 46.125]}, "properties": {"cell_key": "307_71", "elevation_m": 1691.0, "veg_class": "conifer", "habitat_score": 0.491, "veg_sample_count": 2}}, {"type": "Feature", "geometry": {"type": "Point", "coordinates": [9.825, 44.175]}, "properties": {"cell_key": "294_65", "elevation_m": 424.0, "veg_class": "mixed", "habitat_score": 1.0, "veg_sample_count": 2}}, {"type": "Feature", "geometry": {"type": "Point", "coordinates": [14.475, 40.875]}, "properties": {"cell_key": "272_96", "elevation_m": 97.0, "veg_class": "none", "habitat_score": 0.1, "veg_sample_count": 1}}, {"type": "Feature", "geometry": {"type": "Point", "coordinates": [14.924999999999999, 41.025]}, "properties": {"cell_key": "273_99", "elevation_m": 393.0, "veg_class": "none", "habitat_score": 0.1, "veg_sample_count": 1}}, {"type": "Feature", "geometry": {"type": "Point", "coordinates": [14.774999999999999, 40.875]}, "properties": {"cell_key": "272_98", "elevation_m": 480.0, "veg_class": "none", "habitat_score": 0.1, "veg_sample_count": 1}}, {"type": "Feature", "geometry": {"type": "Point", "coordinates": [12.225, 42.375]}, "properties": {"cell_key": "282_81", "elevation_m": 638.0, "veg_class": "broadleaf", "habitat_score": 1.0, "veg_sample_count": 1}}, {"type": "Feature", "geometry": {"type": "Point", "coordinates": [13.125, 41.775]}, "properties": {"cell_key": "278_87", "elevation_m": 306.0, "veg_class": "broadleaf", "habitat_score": 1.0, "veg_sample_count": 1}}, {"type": "Feature", "geometry": {"type": "Point", "coordinates": [8.025, 44.775]}, "properties": {"cell_key": "298_53", "elevation_m": 243.0, "veg_class": "broadleaf", "habitat_score": 1.0, "veg_sample_count": 1}}, {"type": "Feature", "geometry": {"type": "Point", "coordinates": [14.325, 41.175]}, "properties": {"cell_key": "274_95", "elevation_m": 197.0, "veg_class": "broadleaf", "habitat_score": 1.0, "veg_sample_count": 2}}, {"type": "Feature", "geometry": {"type": "Point", "coordinates": [11.325, 43.275]}, "properties": {"cell_key": "288_75", "elevation_m": 248.0, "veg_class": "none", "habitat_score": 0.1, "veg_sample_count": 1}}, {"type": "Feature", "geometry": {"type": "Point", "coordinates": [11.475, 46.875]}, "properties": {"cell_key": "312_76", "elevation_m": 932.0, "veg_class": "conifer", "habitat_score": 1.0, "veg_sample_count": 1}}, {"type": "Feature", "geometry": {"type": "Point", "coordinates": [10.275, 45.975]}, "properties": {"cell_key": "306_68", "elevation_m": 1197.0, "veg_class": "shrub", "habitat_score": 0.5, "veg_sample_count": 1}}, {"type": "Feature", "geometry": {"type": "Point", "coordinates": [10.725, 45.824999999999996]}, "properties": {"cell_key": "305_71", "elevation_m": 1063.0, "veg_class": "none", "habitat_score": 0.1, "veg_sample_count": 1}}, {"type": "Feature", "geometry": {"type": "Point", "coordinates": [9.225, 44.625]}, "properties": {"cell_key": "297_61", "elevation_m": 1080.0, "veg_class": "broadleaf", "habitat_score": 1.0, "veg_sample_count": 1}}, {"type": "Feature", "geometry": {"type": "Point", "coordinates": [17.175, 40.875]}, "properties": {"cell_key": "272_114", "elevation_m": 309.0, "veg_class": "none", "habitat_score": 0.1, "veg_sample_count": 1}}, {"type": "Feature", "geometry": {"type": "Point", "coordinates": [11.924999999999999, 46.275]}, "properties": {"cell_key": "308_79", "elevation_m": 1203.0, "veg_class": "conifer", "habitat_score": 1.0, "veg_sample_count": 2}}, {"type": "Feature", "geometry": {"type": "Point", "coordinates": [10.275, 44.175]}, "properties": {"cell_key": "294_68", "elevation_m": 547.0, "veg_class": "broadleaf", "habitat_score": 1.0, "veg_sample_count": 1}}, {"type": "Feature", "geometry": {"type": "Point", "coordinates": [14.325, 41.925]}, "properties": {"cell_key": "279_95", "elevation_m": 475.0, "veg_class": "none", "habitat_score": 0.1, "veg_sample_count": 1}}, {"type": "Feature", "geometry": {"type": "Point", "coordinates": [13.125, 46.574999999999996]}, "properties": {"cell_key": "310_87", "elevation_m": 1192.0, "veg_class": "none", "habitat_score": 0.1, "veg_sample_count": 1}}, {"type": "Feature", "geometry": {"type": "Point", "coordinates": [10.725, 45.975]}, "properties": {"cell_key": "306_71", "elevation_m": 1565.0, "veg_class": "none", "habitat_score": 0.071, "veg_sample_count": 1}}, {"type": "Feature", "geometry": {"type": "Point", "coordinates": [12.225, 42.074999999999996]}, "properties": {"cell_key": "280_81", "elevation_m": 242.0, "veg_class": "none", "habitat_score": 0.1, "veg_sample_count": 2}}, {"type": "Feature", "geometry": {"type": "Point", "coordinates": [12.975, 41.925]}, "properties": {"cell_key": "279_86", "elevation_m": 399.0, "veg_class": "broadleaf", "habitat_score": 1.0, "veg_sample_count": 1}}, {"type": "Feature", "geometry": {"type": "Point", "coordinates": [14.475, 42.225]}, "properties": {"cell_key": "281_96", "elevation_m": 89.0, "veg_class": "broadleaf", "habitat_score": 1.0, "veg_sample_count": 2}}, {"type": "Feature", "geometry": {"type": "Point", "coordinates": [12.525, 41.625]}, "properties": {"cell_key": "277_83", "elevation_m": 51.0, "veg_class": "broadleaf", "habitat_score": 1.0, "veg_sample_count": 1}}, {"type": "Feature", "geometry": {"type": "Point", "coordinates": [9.525, 40.725]}, "properties": {"cell_key": "271_63", "elevation_m": 521.0, "veg_class": "none", "habitat_score": 0.1, "veg_sample_count": 1}}, {"type": "Feature", "geometry": {"type": "Point", "coordinates": [12.075, 42.975]}, "properties": {"cell_key": "286_80", "elevation_m": 360.0, "veg_class": "broadleaf", "habitat_score": 1.0, "veg_sample_count": 1}}, {"type": "Feature", "geometry": {"type": "Point", "coordinates": [14.924999999999999, 37.875]}, "properties": {"cell_key": "252_99", "elevation_m": 835.0, "veg_class": "none", "habitat_score": 0.1, "veg_sample_count": 1}}, {"type": "Feature", "geometry": {"type": "Point", "coordinates": [11.325, 43.725]}, "properties": {"cell_key": "291_75", "elevation_m": 117.0, "veg_class": "none", "habitat_score": 0.1, "veg_sample_count": 1}}, {"type": "Feature", "geometry": {"type": "Point", "coordinates": [18.224999999999998, 40.425]}, "properties": {"cell_key": "269_121", "elevation_m": 14.0, "veg_class": "none", "habitat_score": 0.057, "veg_sample_count": 1}}, {"type": "Feature", "geometry": {"type": "Point", "coordinates": [10.275, 44.775]}, "properties": {"cell_key": "298_68", "elevation_m": 83.0, "veg_class": "none", "habitat_score": 0.1, "veg_sample_count": 1}}, {"type": "Feature", "geometry": {"type": "Point", "coordinates": [11.325, 42.525]}, "properties": {"cell_key": "283_75", "elevation_m": 23.0, "veg_class": "broadleaf", "habitat_score": 0.676, "veg_sample_count": 1}}, {"type": "Feature", "geometry": {"type": "Point", "coordinates": [12.825, 42.525]}, "properties": {"cell_key": "283_85", "elevation_m": 737.0, "veg_class": "none", "habitat_score": 0.1, "veg_sample_count": 1}}, {"type": "Feature", "geometry": {"type": "Point", "coordinates": [9.225, 44.775]}, "properties": {"cell_key": "298_61", "elevation_m": 684.0, "veg_class": "broadleaf", "habitat_score": 1.0, "veg_sample_count": 1}}, {"type": "Feature", "geometry": {"type": "Point", "coordinates": [10.875, 45.824999999999996]}, "properties": {"cell_key": "305_72", "elevation_m": 991.0, "veg_class": "shrub", "habitat_score": 0.5, "veg_sample_count": 1}}, {"type": "Feature", "geometry": {"type": "Point", "coordinates": [9.525, 44.475]}, "properties": {"cell_key": "296_63", "elevation_m": 1214.0, "veg_class": "shrub", "habitat_score": 0.5, "veg_sample_count": 2}}, {"type": "Feature", "geometry": {"type": "Point", "coordinates": [10.875, 45.975]}, "properties": {"cell_key": "306_72", "elevation_m": 1124.0, "veg_class": "mixed", "habitat_score": 1.0, "veg_sample_count": 1}}, {"type": "Feature", "geometry": {"type": "Point", "coordinates": [10.875, 44.625]}, "properties": {"cell_key": "297_72", "elevation_m": 44.0, "veg_class": "none", "habitat_score": 0.093, "veg_sample_count": 1}}, {"type": "Feature", "geometry": {"type": "Point", "coordinates": [10.575, 46.875]}, "properties": {"cell_key": "312_70", "elevation_m": 2463.0, "veg_class": "conifer", "habitat_score": 0.15, "veg_sample_count": 1}}, {"type": "Feature", "geometry": {"type": "Point", "coordinates": [13.424999999999999, 43.574999999999996]}, "properties": {"cell_key": "290_89", "elevation_m": 69.0, "veg_class": "none", "habitat_score": 0.1, "veg_sample_count": 1}}, {"type": "Feature", "geometry": {"type": "Point", "coordinates": [12.825, 42.975]}, "properties": {"cell_key": "286_85", "elevation_m": 575.0, "veg_class": "broadleaf", "habitat_score": 1.0, "veg_sample_count": 1}}, {"type": "Feature", "geometry": {"type": "Point", "coordinates": [11.325, 43.125]}, "properties": {"cell_key": "287_75", "elevation_m": 177.0, "veg_class": "mixed", "habitat_score": 1.0, "veg_sample_count": 2}}, {"type": "Feature", "geometry": {"type": "Point", "coordinates": [14.475, 41.925]}, "properties": {"cell_key": "279_96", "elevation_m": 657.0, "veg_class": "broadleaf", "habitat_score": 1.0, "veg_sample_count": 1}}, {"type": "Feature", "geometry": {"type": "Point", "coordinates": [15.375, 41.175]}, "properties": {"cell_key": "274_102", "elevation_m": 615.0, "veg_class": "mixed", "habitat_score": 1.0, "veg_sample_count": 1}}, {"type": "Feature", "geometry": {"type": "Point", "coordinates": [14.475, 40.725]}, "properties": {"cell_key": "271_96", "elevation_m": 2.0, "veg_class": "none", "habitat_score": 0.042, "veg_sample_count": 1}}, {"type": "Feature", "geometry": {"type": "Point", "coordinates": [14.174999999999999, 40.875]}, "properties": {"cell_key": "272_94", "elevation_m": 345.0, "veg_class": "broadleaf", "habitat_score": 1.0, "veg_sample_count": 3}}, {"type": "Feature", "geometry": {"type": "Point", "coordinates": [8.924999999999999, 41.025]}, "properties": {"cell_key": "273_59", "elevation_m": 100.0, "veg_class": "broadleaf", "habitat_score": 1.0, "veg_sample_count": 1}}, {"type": "Feature", "geometry": {"type": "Point", "coordinates": [7.125, 45.074999999999996]}, "properties": {"cell_key": "300_47", "elevation_m": 2258.0, "veg_class": "broadleaf", "habitat_score": 0.15, "veg_sample_count": 1}}, {"type": "Feature", "geometry": {"type": "Point", "coordinates": [14.025, 40.875]}, "properties": {"cell_key": "272_93", "elevation_m": 0.0, "veg_class": "none", "habitat_score": 0.04, "veg_sample_count": 1}}, {"type": "Feature", "geometry": {"type": "Point", "coordinates": [11.174999999999999, 44.324999999999996]}, "properties": {"cell_key": "295_74", "elevation_m": 315.0, "veg_class": "broadleaf", "habitat_score": 1.0, "veg_sample_count": 1}}, {"type": "Feature", "geometry": {"type": "Point", "coordinates": [10.424999999999999, 42.824999999999996]}, "properties": {"cell_key": "285_69", "elevation_m": 99.0, "veg_class": "none", "habitat_score": 0.1, "veg_sample_count": 1}}, {"type": "Feature", "geometry": {"type": "Point", "coordinates": [14.475, 41.324999999999996]}, "properties": {"cell_key": "275_96", "elevation_m": 1272.0, "veg_class": "broadleaf", "habitat_score": 1.0, "veg_sample_count": 1}}, {"type": "Feature", "geometry": {"type": "Point", "coordinates": [12.225, 42.675]}, "properties": {"cell_key": "284_81", "elevation_m": 269.0, "veg_class": "none", "habitat_score": 0.1, "veg_sample_count": 1}}, {"type": "Feature", "geometry": {"type": "Point", "coordinates": [9.225, 45.675]}, "properties": {"cell_key": "304_61", "elevation_m": 248.0, "veg_class": "broadleaf", "habitat_score": 1.0, "veg_sample_count": 1}}, {"type": "Feature", "geometry": {"type": "Point", "coordinates": [10.275, 43.574999999999996]}, "properties": {"cell_key": "290_68", "elevation_m": 0.0, "veg_class": "none", "habitat_score": 0.04, "veg_sample_count": 1}}, {"type": "Feature", "geometry": {"type": "Point", "coordinates": [10.275, 43.875]}, "properties": {"cell_key": "292_68", "elevation_m": 0.0, "veg_class": "none", "habitat_score": 0.04, "veg_sample_count": 1}}, {"type": "Feature", "geometry": {"type": "Point", "coordinates": [14.174999999999999, 41.025]}, "properties": {"cell_key": "273_94", "elevation_m": 15.0, "veg_class": "none", "habitat_score": 0.058, "veg_sample_count": 1}}, {"type": "Feature", "geometry": {"type": "Point", "coordinates": [13.125, 41.925]}, "properties": {"cell_key": "279_87", "elevation_m": 845.0, "veg_class": "none", "habitat_score": 0.1, "veg_sample_count": 2}}, {"type": "Feature", "geometry": {"type": "Point", "coordinates": [9.825, 44.625]}, "properties": {"cell_key": "297_65", "elevation_m": 534.0, "veg_class": "broadleaf", "habitat_score": 1.0, "veg_sample_count": 1}}, {"type": "Feature", "geometry": {"type": "Point", "coordinates": [8.475, 44.175]}, "properties": {"cell_key": "294_56", "elevation_m": 0.0, "veg_class": "mixed", "habitat_score": 0.4, "veg_sample_count": 2}}, {"type": "Feature", "geometry": {"type": "Point", "coordinates": [11.625, 43.725]}, "properties": {"cell_key": "291_77", "elevation_m": 848.0, "veg_class": "conifer", "habitat_score": 1.0, "veg_sample_count": 1}}, {"type": "Feature", "geometry": {"type": "Point", "coordinates": [10.575, 43.275]}, "properties": {"cell_key": "288_70", "elevation_m": 41.0, "veg_class": "broadleaf", "habitat_score": 0.892, "veg_sample_count": 2}}, {"type": "Feature", "geometry": {"type": "Point", "coordinates": [9.225, 44.475]}, "properties": {"cell_key": "296_61", "elevation_m": 942.0, "veg_class": "broadleaf", "habitat_score": 1.0, "veg_sample_count": 1}}, {"type": "Feature", "geometry": {"type": "Point", "coordinates": [10.725, 46.574999999999996]}, "properties": {"cell_key": "310_71", "elevation_m": 2796.0, "veg_class": "conifer", "habitat_score": 0.15, "veg_sample_count": 1}}, {"type": "Feature", "geometry": {"type": "Point", "coordinates": [9.075, 45.824999999999996]}, "properties": {"cell_key": "305_60", "elevation_m": 197.0, "veg_class": "none", "habitat_score": 0.1, "veg_sample_count": 1}}, {"type": "Feature", "geometry": {"type": "Point", "coordinates": [11.475, 44.025]}, "properties": {"cell_key": "293_76", "elevation_m": 880.0, "veg_class": "broadleaf", "habitat_score": 1.0, "veg_sample_count": 1}}, {"type": "Feature", "geometry": {"type": "Point", "coordinates": [14.325, 40.875]}, "properties": {"cell_key": "272_95", "elevation_m": 13.0, "veg_class": "none", "habitat_score": 0.056, "veg_sample_count": 1}}, {"type": "Feature", "geometry": {"type": "Point", "coordinates": [11.924999999999999, 42.225]}, "properties": {"cell_key": "281_79", "elevation_m": 76.0, "veg_class": "none", "habitat_score": 0.1, "veg_sample_count": 1}}, {"type": "Feature", "geometry": {"type": "Point", "coordinates": [11.625, 44.175]}, "properties": {"cell_key": "294_77", "elevation_m": 656.0, "veg_class": "broadleaf", "habitat_score": 1.0, "veg_sample_count": 1}}, {"type": "Feature", "geometry": {"type": "Point", "coordinates": [11.325, 42.975]}, "properties": {"cell_key": "286_75", "elevation_m": 136.0, "veg_class": "broadleaf", "habitat_score": 1.0, "veg_sample_count": 1}}, {"type": "Feature", "geometry": {"type": "Point", "coordinates": [10.275, 44.025]}, "properties": {"cell_key": "293_68", "elevation_m": 716.0, "veg_class": "broadleaf", "habitat_score": 1.0, "veg_sample_count": 2}}, {"type": "Feature", "geometry": {"type": "Point", "coordinates": [11.924999999999999, 46.574999999999996]}, "properties": {"cell_key": "310_79", "elevation_m": 1490.0, "veg_class": "conifer", "habitat_score": 0.843, "veg_sample_count": 1}}, {"type": "Feature", "geometry": {"type": "Point", "coordinates": [7.725, 44.025]}, "properties": {"cell_key": "293_51", "elevation_m": 1291.0, "veg_class": "mixed", "habitat_score": 1.0, "veg_sample_count": 1}}, {"type": "Feature", "geometry": {"type": "Point", "coordinates": [12.225, 46.425]}, "properties": {"cell_key": "309_81", "elevation_m": 918.0, "veg_class": "none", "habitat_score": 0.1, "veg_sample_count": 1}}, {"type": "Feature", "geometry": {"type": "Point", "coordinates": [11.924999999999999, 43.574999999999996]}, "properties": {"cell_key": "290_79", "elevation_m": 534.0, "veg_class": "none", "habitat_score": 0.1, "veg_sample_count": 1}}, {"type": "Feature", "geometry": {"type": "Point", "coordinates": [9.975, 44.625]}, "properties": {"cell_key": "297_66", "elevation_m": 334.0, "veg_class": "broadleaf", "habitat_score": 1.0, "veg_sample_count": 1}}, {"type": "Feature", "geometry": {"type": "Point", "coordinates": [10.275, 46.275]}, "properties": {"cell_key": "308_68", "elevation_m": 1002.0, "veg_class": "broadleaf", "habitat_score": 1.0, "veg_sample_count": 1}}, {"type": "Feature", "geometry": {"type": "Point", "coordinates": [11.475, 44.175]}, "properties": {"cell_key": "294_76", "elevation_m": 484.0, "veg_class": "broadleaf", "habitat_score": 1.0, "veg_sample_count": 1}}, {"type": "Feature", "geometry": {"type": "Point", "coordinates": [11.625, 43.425]}, "properties": {"cell_key": "289_77", "elevation_m": 257.0, "veg_class": "broadleaf", "habitat_score": 1.0, "veg_sample_count": 1}}, {"type": "Feature", "geometry": {"type": "Point", "coordinates": [13.725, 45.525]}, "properties": {"cell_key": "303_91", "elevation_m": 81.0, "veg_class": "broadleaf", "habitat_score": 1.0, "veg_sample_count": 1}}, {"type": "Feature", "geometry": {"type": "Point", "coordinates": [11.775, 43.125]}, "properties": {"cell_key": "287_78", "elevation_m": 298.0, "veg_class": "none", "habitat_score": 0.1, "veg_sample_count": 1}}, {"type": "Feature", "geometry": {"type": "Point", "coordinates": [11.325, 44.025]}, "properties": {"cell_key": "293_75", "elevation_m": 410.0, "veg_class": "broadleaf", "habitat_score": 1.0, "veg_sample_count": 1}}, {"type": "Feature", "geometry": {"type": "Point", "coordinates": [11.025, 44.025]}, "properties": {"cell_key": "293_73", "elevation_m": 930.0, "veg_class": "broadleaf", "habitat_score": 1.0, "veg_sample_count": 1}}, {"type": "Feature", "geometry": {"type": "Point", "coordinates": [11.475, 45.525]}, "properties": {"cell_key": "303_76", "elevation_m": 36.0, "veg_class": "none", "habitat_score": 0.083, "veg_sample_count": 1}}, {"type": "Feature", "geometry": {"type": "Point", "coordinates": [8.174999999999999, 45.975]}, "properties": {"cell_key": "306_54", "elevation_m": 1488.0, "veg_class": "mixed", "habitat_score": 0.846, "veg_sample_count": 1}}, {"type": "Feature", "geometry": {"type": "Point", "coordinates": [9.075, 44.775]}, "properties": {"cell_key": "298_60", "elevation_m": 427.0, "veg_class": "broadleaf", "habitat_score": 1.0, "veg_sample_count": 1}}, {"type": "Feature", "geometry": {"type": "Point", "coordinates": [15.075, 38.025]}, "properties": {"cell_key": "253_100", "elevation_m": 563.0, "veg_class": "broadleaf", "habitat_score": 1.0, "veg_sample_count": 1}}, {"type": "Feature", "geometry": {"type": "Point", "coordinates": [11.775, 45.824999999999996]}, "properties": {"cell_key": "305_78", "elevation_m": 642.0, "veg_class": "broadleaf", "habitat_score": 1.0, "veg_sample_count": 1}}]}